{"type":"FeatureCollection","features":[{"type":"Feature","geometry":{"type":"Polygon","coordinates":[[[-35.7968,-5.8533],[-35.8327,-5.9088],[-35.8498,-5.9154],[-35.8348,-5.9471],[-35.7783,-6.0159],[-35.7092,-6.0006],[-35.6684,-5.9839],[-35.6875,-5.9191],[-35.6832,-5.869],[-35.7039,-5.8615],[-35.7421,-5.8723],[-35.7968,-5.8533]]]},"properties":{"cd_geocmu":"2412609","nome":"São Paulo do Potengi","uf":"RN","hc-key":"br-rn-2412609"}},{"type":"Feature","geometry":{"type":"Polygon","coordinates":[[[-37.5786,-5.5716],[-37.4932,-5.5668],[-37.4421,-5.5869],[-37.3824,-5.4782],[-37.2947,-5.4779],[-37.3021,-5.4632],[-37.2958,-5.3914],[-37.426,-5.3112],[-37.5831,-5.2779],[-37.7882,-5.2192],[-37.7865,-5.2236],[-37.7864,-5.2969],[-37.8128,-5.3166],[-37.6431,-5.4164],[-37.5624,-5.4923],[-37.5786,-5.5716]]]},"properties":{"cd_geocmu":"2404309","nome":"Governador Dix-Sept Rosado","uf":"RN","hc-key":"br-rn-2404309"}},{"type":"Feature","geometry":{"type":"Polygon","coordinates":[[[-36.7743,-6.473],[-36.7612,-6.4785],[-36.7423,-6.3929],[-36.7542,-6.3205],[-36.7729,-6.2984],[-36.8144,-6.3037],[-36.8377,-6.2698],[-36.8953,-6.2394],[-36.9096,-6.2432],[-36.9237,-6.2944],[-36.8863,-6.3429],[-36.8608,-6.3888],[-36.8741,-6.4187],[-36.8202,-6.4388],[-36.8031,-6.4636],[-36.7743,-6.473]]]},"properties":{"cd_geocmu":"2403004","nome":"Cruzeta","uf":"RN","hc-key":"br-rn-2403004"}},{"type":"Feature","geometry":{"type":"Polygon","coordinates":[[[-36.2622,-5.6799],[-36.2735,-5.7093],[-36.2848,-5.8593],[-36.258,-5.8648],[-36.2242,-5.9],[-36.2129,-5.8737],[-36.1591,-5.8503],[-36.1361,-5.8639],[-36.1125,-5.8422],[-36.1156,-5.8092],[-36.0918,-5.749],[-36.0625,-5.6553],[-36.1432,-5.5915],[-36.1437,-5.5669],[-36.172,-5.5447],[-36.1409,-5.5002],[-36.1285,-5.4568],[-36.1599,-5.4341],[-36.2232,-5.4339],[-36.1797,-5.4775],[-36.2622,-5.6799]]]},"properties":{"cd_geocmu":"2406700","nome":"Lajes","uf":"RN","hc-key":"br-rn-2406700"}},{"type":"Feature","geometry":{"type":"Polygon","coordinates":[[[-35.4685,-6.2307],[-35.5677,-6.2057],[-35.6218,-6.2052],[-35.66,-6.2222],[-35.6664,-6.239],[-35.6432,-6.3258],[-35.5534,-6.2847],[-35.5031,-6.2977],[-35.4691,-6.2736],[-35.4685,-6.2307]]]},"properties":{"cd_geocmu":"2413508","nome":"Serrinha","uf":"RN","hc-key":"br-rn-2413508"}},{"type":"Feature","geometry":{"type":"Polygon","coordinates":[[[-35.8705,-6.3628],[-35.9072,-6.3526],[-35.965,-6.3878],[-35.9655,-6.471],[-35.9652,-6.4844],[-35.9442,-6.493],[-35.8704,-6.4886],[-35.7799,-6.4833],[-35.8387,-6.4526],[-35.8546,-6.4345],[-35.8434,-6.3778],[-35.8705,-6.3628]]]},"properties":{"cd_geocmu":"2405405","nome":"Japi","uf":"RN","hc-key":"br-rn-2405405"}},{"type":"Feature","geometry":{"type":"Polygon","coordinates":[[[-36.4699,-5.5984],[-36.5727,-5.5859],[-36.5804,-5.5288],[-36.699,-5.5261],[-36.7253,-5.5738],[-36.7712,-5.6059],[-36.751,-5.6468],[-36.7318,-5.6843],[-36.7027,-5.7014],[-36.6747,-5.7061],[-36.6576,-5.7425],[-36.6301,-5.7587],[-36.5679,-5.7576],[-36.5238,-5.6996],[-36.4442,-5.6986],[-36.3619,-5.7079],[-36.3257,-5.7215],[-36.2735,-5.7093],[-36.2622,-5.6799],[-36.307,-5.6503],[-36.4699,-5.5984]]]},"properties":{"cd_geocmu":"2400802","nome":"Angicos","uf":"RN","hc-key":"br-rn-2400802"}},{"type":"Feature","geometry":{"type":"Polygon","coordinates":[[[-35.3651,-6.0555],[-35.3233,-6.0482],[-35.2987,-6.0721],[-35.3261,-6.1408],[-35.3524,-6.182],[-35.3394,-6.1854],[-35.319,-6.191],[-35.2857,-6.2053],[-35.2981,-6.1613],[-35.2203,-6.1708],[-35.2264,-6.1624],[-35.2281,-6.0734],[-35.2375,-6.0683],[-35.2291,-5.9914],[-35.2462,-5.9542],[-35.2961,-5.9582],[-35.3734,-5.9874],[-35.3821,-6.0218],[-35.3651,-6.0555]]]},"properties":{"cd_geocmu":"2412203","nome":"São José de Mipibu","uf":"RN","hc-key":"br-rn-2412203"}},{"type":"Feature","geometry":{"type":"Polygon","coordinates":[[[-37.9471,-6.1605],[-37.9411,-6.0992],[-37.981,-6.0756],[-38.0088,-6.0964],[-38.0438,-6.126],[-38.0417,-6.1691],[-38.0224,-6.2095],[-37.9932,-6.2103],[-37.9471,-6.1605]]]},"properties":{"cd_geocmu":"2413557","nome":"Serrinha dos Pintos","uf":"RN","hc-key":"br-rn-2413557"}},{"type":"Feature","geometry":{"type":"Polygon","coordinates":[[[-38.1894,-6.0463],[-38.1477,-6.0961],[-38.1035,-6.1138],[-38.0438,-6.126],[-38.0088,-6.0964],[-38.0334,-6.06],[-38.0867,-6.015],[-38.1145,-5.9591],[-38.1444,-5.9723],[-38.1843,-6.018],[-38.1894,-6.0463]]]},"properties":{"cd_geocmu":"2403905","nome":"Francisco Dantas","uf":"RN","hc-key":"br-rn-2403905"}},{"type":"Feature","geometry":{"type":"Polygon","coordinates":[[[-36.9369,-6.5777],[-36.9806,-6.6171],[-36.9798,-6.6416],[-37.0036,-6.7096],[-36.9776,-6.7219],[-36.9591,-6.7833],[-36.9102,-6.7569],[-36.835,-6.7311],[-36.8426,-6.6746],[-36.8167,-6.6796],[-36.8705,-6.6306],[-36.91,-6.6076],[-36.9369,-6.5777]]]},"properties":{"cd_geocmu":"2408508","nome":"Ouro Branco","uf":"RN","hc-key":"br-rn-2408508"}},{"type":"Feature","geometry":{"type":"Polygon","coordinates":[[[-36.4068,-5.0807],[-36.4492,-5.0664],[-36.5078,-5.0623],[-36.5423,-5.0885],[-36.611,-5.0786],[-36.6134,-5.0943],[-36.7156,-5.0809],[-36.7443,-5.0895],[-36.7216,-5.1385],[-36.7291,-5.175],[-36.5643,-5.2182],[-36.5354,-5.2638],[-36.5421,-5.3015],[-36.5148,-5.3019],[-36.5156,-5.4022],[-36.4399,-5.3699],[-36.4103,-5.3342],[-36.3813,-5.3149],[-36.3803,-5.2713],[-36.3682,-5.2508],[-36.4306,-5.1331],[-36.4068,-5.0807]]]},"properties":{"cd_geocmu":"2407203","nome":"Macau","uf":"RN","hc-key":"br-rn-2407203"}},{"type":"Feature","geometry":{"type":"Polygon","coordinates":[[[-35.3144,-6.4496],[-35.2792,-6.4485],[-35.2754,-6.4809],[-35.2244,-6.5216],[-35.194,-6.5503],[-35.1458,-6.5528],[-35.1462,-6.5328],[-35.1851,-6.4155],[-35.2222,-6.4213],[-35.2712,-6.3722],[-35.3096,-6.4031],[-35.3144,-6.4496]]]},"properties":{"cd_geocmu":"2409803","nome":"Pedro Velho","uf":"RN","hc-key":"br-rn-2409803"}},{"type":"Feature","geometry":{"type":"Polygon","coordinates":[[[-38.3366,-6.3742],[-38.3476,-6.448],[-38.3068,-6.4261],[-38.2867,-6.3918],[-38.3366,-6.3742]]]},"properties":{"cd_geocmu":"2407252","nome":"Major Sales","uf":"RN","hc-key":"br-rn-2407252"}},{"type":"Feature","geometry":{"type":"Polygon","coordinates":[[[-35.7214,-6.1731],[-35.7323,-6.1425],[-35.8082,-6.1397],[-35.8208,-6.1294],[-35.8232,-6.0744],[-35.9182,-6.1628],[-35.8705,-6.3628],[-35.8499,-6.3622],[-35.8041,-6.319],[-35.7634,-6.2016],[-35.7406,-6.1827],[-35.7214,-6.1731]]]},"properties":{"cd_geocmu":"2414001","nome":"Tangará","uf":"RN","hc-key":"br-rn-2414001"}},{"type":"Feature","geometry":{"type":"Polygon","coordinates":[[[-37.2346,-6.8246],[-37.1927,-6.8261],[-37.1522,-6.7984],[-37.1277,-6.7656],[-37.0754,-6.7541],[-37.0956,-6.7245],[-37.1577,-6.7396],[-37.2043,-6.7617],[-37.2639,-6.7322],[-37.2694,-6.762],[-37.2551,-6.8111],[-37.2346,-6.8246]]]},"properties":{"cd_geocmu":"2404804","nome":"Ipueira","uf":"RN","hc-key":"br-rn-2404804"}},{"type":"Feature","geometry":{"type":"Polygon","coordinates":[[[-35.2722,-6.3702],[-35.2667,-6.3243],[-35.2857,-6.2053],[-35.319,-6.191],[-35.3232,-6.2711],[-35.3422,-6.3153],[-35.3389,-6.3811],[-35.3096,-6.4031],[-35.2712,-6.3722],[-35.2722,-6.3702]]]},"properties":{"cd_geocmu":"2403509","nome":"Espírito Santo","uf":"RN","hc-key":"br-rn-2403509"}},{"type":"Feature","geometry":{"type":"Polygon","coordinates":[[[-36.8975,-5.6035],[-36.8834,-5.6406],[-36.8936,-5.7108],[-36.8492,-5.7241],[-36.7897,-5.7552],[-36.7549,-5.7586],[-36.7027,-5.7014],[-36.7318,-5.6843],[-36.751,-5.6468],[-36.8159,-5.6426],[-36.8975,-5.6035]]]},"properties":{"cd_geocmu":"2404853","nome":"Itajá","uf":"RN","hc-key":"br-rn-2404853"}},{"type":"Feature","geometry":{"type":"Polygon","coordinates":[[[-37.1407,-6.181],[-37.193,-6.2123],[-37.2166,-6.2455],[-37.2195,-6.3681],[-37.2609,-6.4043],[-37.2205,-6.4303],[-37.1885,-6.439],[-37.1404,-6.4485],[-37.1408,-6.428],[-37.102,-6.4176],[-37.0728,-6.3925],[-37.0816,-6.3542],[-37.0809,-6.2906],[-37.0457,-6.2239],[-37.0701,-6.2375],[-37.0971,-6.2312],[-37.1407,-6.181]]]},"properties":{"cd_geocmu":"2411809","nome":"São Fernando","uf":"RN","hc-key":"br-rn-2411809"}},{"type":"Feature","geometry":{"type":"Polygon","coordinates":[[[-37.7766,-6.2459],[-37.7944,-6.2565],[-37.8501,-6.2559],[-37.8818,-6.2731],[-37.9081,-6.2852],[-37.9008,-6.3183],[-37.8432,-6.3331],[-37.8121,-6.2927],[-37.7649,-6.2922],[-37.7766,-6.2459]]]},"properties":{"cd_geocmu":"2405900","nome":"João Dias","uf":"RN","hc-key":"br-rn-2405900"}},{"type":"Feature","geometry":{"type":"Polygon","coordinates":[[[-35.2244,-6.5216],[-35.2754,-6.4809],[-35.2792,-6.4485],[-35.3144,-6.4496],[-35.3413,-6.5386],[-35.2746,-6.5439],[-35.2244,-6.5216]]]},"properties":{"cd_geocmu":"2407708","nome":"Montanhas","uf":"RN","hc-key":"br-rn-2407708"}},{"type":"Feature","geometry":{"type":"Polygon","coordinates":[[[-35.0443,-6.2838],[-35.0634,-6.2979],[-35.0555,-6.327],[-35.0845,-6.3399],[-35.1174,-6.3338],[-35.1168,-6.2818],[-35.1453,-6.299],[-35.1674,-6.322],[-35.1674,-6.354],[-35.1987,-6.3593],[-35.2361,-6.3493],[-35.2722,-6.3702],[-35.2712,-6.3722],[-35.2222,-6.4213],[-35.1851,-6.4155],[-35.1462,-6.5328],[-35.1458,-6.5528],[-35.1125,-6.5051],[-35.1101,-6.4461],[-35.1273,-6.412],[-35.0628,-6.362],[-35.0677,-6.3464],[-35.0319,-6.3108],[-35.0334,-6.2864],[-35.0443,-6.2838]]]},"properties":{"cd_geocmu":"2402204","nome":"Canguaretama","uf":"RN","hc-key":"br-rn-2402204"}},{"type":"Feature","geometry":{"type":"Polygon","coordinates":[[[-38.272,-6.2226],[-38.2491,-6.2493],[-38.1939,-6.2206],[-38.1696,-6.1941],[-38.1735,-6.17],[-38.2072,-6.1556],[-38.2491,-6.1638],[-38.2776,-6.181],[-38.272,-6.2226]]]},"properties":{"cd_geocmu":"2410504","nome":"Rafael Fernandes","uf":"RN","hc-key":"br-rn-2410504"}},{"type":"Feature","geometry":{"type":"Polygon","coordinates":[[[-37.7978,-6.2173],[-37.801,-6.1537],[-37.864,-6.104],[-37.8587,-6.1236],[-37.8895,-6.1669],[-37.7978,-6.2173]]]},"properties":{"cd_geocmu":"2404002","nome":"Frutuoso Gomes","uf":"RN","hc-key":"br-rn-2404002"}},{"type":"Feature","geometry":{"type":"Polygon","coordinates":[[[-35.66,-6.2222],[-35.6633,-6.1979],[-35.7406,-6.1827],[-35.7634,-6.2016],[-35.8041,-6.319],[-35.8499,-6.3622],[-35.8705,-6.3628],[-35.8434,-6.3778],[-35.7734,-6.4076],[-35.7647,-6.4186],[-35.683,-6.3581],[-35.6714,-6.3146],[-35.6432,-6.3258],[-35.6664,-6.239],[-35.66,-6.2222]]]},"properties":{"cd_geocmu":"2412302","nome":"São José do Campestre","uf":"RN","hc-key":"br-rn-2412302"}},{"type":"Feature","geometry":{"type":"Polygon","coordinates":[[[-38.0143,-5.8541],[-37.9752,-5.8163],[-37.9098,-5.7842],[-37.8812,-5.6971],[-38.0586,-5.7549],[-38.0143,-5.8541]]]},"properties":{"cd_geocmu":"2413607","nome":"Severiano Melo","uf":"RN","hc-key":"br-rn-2413607"}},{"type":"Feature","geometry":{"type":"Polygon","coordinates":[[[-35.3499,-6.2249],[-35.3394,-6.1854],[-35.3524,-6.182],[-35.3814,-6.1585],[-35.403,-6.2103],[-35.4364,-6.2534],[-35.4209,-6.2732],[-35.4014,-6.2454],[-35.3581,-6.2498],[-35.3499,-6.2249]]]},"properties":{"cd_geocmu":"2401800","nome":"Brejinho","uf":"RN","hc-key":"br-rn-2401800"}},{"type":"Feature","geometry":{"type":"Polygon","coordinates":[[[-38.0143,-5.8541],[-38.0586,-5.7549],[-38.1189,-5.8328],[-38.1225,-5.8817],[-38.1593,-5.9246],[-38.1635,-5.9389],[-38.1215,-5.9458],[-38.1021,-5.9233],[-38.0604,-5.9038],[-38.0043,-5.8569],[-38.0143,-5.8541]]]},"properties":{"cd_geocmu":"2411007","nome":"Rodolfo Fernandes","uf":"RN","hc-key":"br-rn-2411007"}},{"type":"Feature","geometry":{"type":"Polygon","coordinates":[[[-35.9248,-6.0106],[-35.8225,-6.0732],[-35.7987,-6.0426],[-35.7783,-6.0159],[-35.8348,-5.9471],[-35.9248,-6.0106]]]},"properties":{"cd_geocmu":"2406403","nome":"Lagoa de Velhos","uf":"RN","hc-key":"br-rn-2406403"}},{"type":"Feature","geometry":{"type":"Polygon","coordinates":[[[-37.9212,-5.9598],[-37.9705,-5.9566],[-37.9828,-5.9685],[-37.9544,-6.0296],[-37.9339,-6.0043],[-37.9212,-5.9598]]]},"properties":{"cd_geocmu":"2414902","nome":"Viçosa","uf":"RN","hc-key":"br-rn-2414902"}},{"type":"Feature","geometry":{"type":"Polygon","coordinates":[[[-36.2232,-5.4339],[-36.1599,-5.4341],[-36.1285,-5.4568],[-36.0633,-5.4054],[-36.0277,-5.4452],[-35.9924,-5.4638],[-36.0124,-5.3991],[-36.0369,-5.3012],[-36.0508,-5.2988],[-36.1035,-5.2865],[-36.1517,-5.2572],[-36.2758,-5.2895],[-36.2232,-5.4339]]]},"properties":{"cd_geocmu":"2405108","nome":"Jandaíra","uf":"RN","hc-key":"br-rn-2405108"}},{"type":"Feature","geometry":{"type":"Polygon","coordinates":[[[-35.0978,-6.1398],[-35.0963,-6.0573],[-35.121,-5.9817],[-35.1827,-5.9378],[-35.212,-5.9348],[-35.2462,-5.9542],[-35.2291,-5.9914],[-35.2375,-6.0683],[-35.2281,-6.0734],[-35.2264,-6.1624],[-35.2203,-6.1708],[-35.1755,-6.1649],[-35.157,-6.1482],[-35.0978,-6.1398]]]},"properties":{"cd_geocmu":"2408201","nome":"Nísia Floresta","uf":"RN","hc-key":"br-rn-2408201"}},{"type":"Feature","geometry":{"type":"Polygon","coordinates":[[[-37.9633,-6.2565],[-37.9839,-6.3106],[-38.0311,-6.3212],[-38.0565,-6.3112],[-38.0998,-6.3303],[-38.1256,-6.3672],[-38.0898,-6.456],[-38.0709,-6.4639],[-38.037,-6.4571],[-38.0268,-6.4748],[-38.0082,-6.4322],[-37.9423,-6.4241],[-37.9194,-6.4116],[-37.8903,-6.4001],[-37.8891,-6.3704],[-37.8589,-6.3744],[-37.8432,-6.3331],[-37.9008,-6.3183],[-37.9081,-6.2852],[-37.8818,-6.2731],[-37.9633,-6.2565]]]},"properties":{"cd_geocmu":"2400505","nome":"Alexandria","uf":"RN","hc-key":"br-rn-2400505"}},{"type":"Feature","geometry":{"type":"Polygon","coordinates":[[[-36.1517,-5.2572],[-36.1035,-5.2865],[-36.0508,-5.2988],[-36.0019,-5.2561],[-36.061,-5.2287],[-36.0375,-5.0515],[-36.0995,-5.0772],[-36.1517,-5.2572]]]},"properties":{"cd_geocmu":"2401859","nome":"Caiçara do Norte","uf":"RN","hc-key":"br-rn-2401859"}},{"type":"Feature","geometry":{"type":"Polygon","coordinates":[[[-37.221,-4.8814],[-37.2527,-4.8314],[-37.3569,-4.8581],[-37.4464,-4.881],[-37.4273,-4.9115],[-37.3651,-4.9074],[-37.3453,-4.935],[-37.3078,-4.9456],[-37.2704,-4.9455],[-37.269,-4.9117],[-37.221,-4.8814]]]},"properties":{"cd_geocmu":"2411056","nome":"Tibau","uf":"RN","hc-key":"br-rn-2411056"}},{"type":"Feature","geometry":{"type":"Polygon","coordinates":[[[-38.2527,-6.4184],[-38.229,-6.4833],[-38.1917,-6.4986],[-38.1451,-6.4942],[-38.1202,-6.5224],[-38.0709,-6.4639],[-38.0898,-6.456],[-38.1256,-6.3672],[-38.1647,-6.3868],[-38.2385,-6.3856],[-38.2527,-6.4184]]]},"properties":{"cd_geocmu":"2414100","nome":"Tenente Ananias","uf":"RN","hc-key":"br-rn-2414100"}},{"type":"Feature","geometry":{"type":"Polygon","coordinates":[[[-37.951,-5.8635],[-37.9169,-5.8527],[-37.9131,-5.9035],[-37.8722,-5.8787],[-37.8799,-5.7543],[-37.8561,-5.7474],[-37.8812,-5.6971],[-37.9098,-5.7842],[-37.9752,-5.8163],[-38.0143,-5.8541],[-38.0043,-5.8569],[-37.951,-5.8635]]]},"properties":{"cd_geocmu":"2404903","nome":"Itaú","uf":"RN","hc-key":"br-rn-2404903"}},{"type":"Feature","geometry":{"type":"Polygon","coordinates":[[[-35.361,-5.7285],[-35.3132,-5.738],[-35.2655,-5.704],[-35.2036,-5.7432],[-35.1922,-5.7006],[-35.2176,-5.6711],[-35.2271,-5.6121],[-35.2848,-5.6243],[-35.361,-5.7285]]]},"properties":{"cd_geocmu":"2403608","nome":"Extremoz","uf":"RN","hc-key":"br-rn-2403608"}},{"type":"Feature","geometry":{"type":"Polygon","coordinates":[[[-36.7037,-6.2208],[-36.7135,-6.2052],[-36.7006,-6.1453],[-36.6533,-6.1118],[-36.7199,-6.0953],[-36.732,-6.1065],[-36.7297,-6.1498],[-36.7854,-6.1967],[-36.7037,-6.2208]]]},"properties":{"cd_geocmu":"2414159","nome":"Tenente Laurentino Cruz","uf":"RN","hc-key":"br-rn-2414159"}},{"type":"Feature","geometry":{"type":"Polygon","coordinates":[[[-35.7909,-5.0774],[-35.9083,-5.0595],[-35.9522,-5.2374],[-35.8319,-5.21],[-35.7909,-5.0774]]]},"properties":{"cd_geocmu":"2409506","nome":"Pedra Grande","uf":"RN","hc-key":"br-rn-2409506"}},{"type":"Feature","geometry":{"type":"Polygon","coordinates":[[[-37.4421,-5.5869],[-37.4932,-5.5668],[-37.5786,-5.5716],[-37.6762,-5.6348],[-37.6916,-5.6532],[-37.7077,-5.7213],[-37.7209,-5.7405],[-37.7338,-5.9119],[-37.713,-5.9191],[-37.6486,-5.9413],[-37.5931,-5.9819],[-37.5546,-5.9589],[-37.5341,-5.9231],[-37.4931,-5.8939],[-37.4475,-5.9027],[-37.4675,-5.7523],[-37.4421,-5.5869]]]},"properties":{"cd_geocmu":"2402303","nome":"Caraúbas","uf":"RN","hc-key":"br-rn-2402303"}},{"type":"Feature","geometry":{"type":"Polygon","coordinates":[[[-37.7774,-6.0678],[-37.7422,-6.1217],[-37.7111,-6.1308],[-37.6876,-6.1093],[-37.6724,-6.0479],[-37.7217,-6.0411],[-37.7407,-6.0132],[-37.7722,-6.0018],[-37.783,-6.0407],[-37.7774,-6.0678]]]},"properties":{"cd_geocmu":"2410603","nome":"Rafael Godeiro","uf":"RN","hc-key":"br-rn-2410603"}},{"type":"Feature","geometry":{"type":"Polygon","coordinates":[[[-37.7338,-5.9119],[-37.7209,-5.7405],[-37.7077,-5.7213],[-37.6916,-5.6532],[-37.6762,-5.6348],[-37.7614,-5.5777],[-37.6431,-5.4164],[-37.8128,-5.3166],[-37.8475,-5.34],[-37.8637,-5.3741],[-37.8605,-5.4067],[-37.8895,-5.4523],[-37.9022,-5.5007],[-37.9347,-5.5053],[-37.9506,-5.5366],[-37.99,-5.5558],[-37.9983,-5.5853],[-38.0278,-5.6227],[-38.0828,-5.6724],[-38.0897,-5.7148],[-38.0469,-5.7329],[-38.0586,-5.7549],[-37.8812,-5.6971],[-37.8561,-5.7474],[-37.8799,-5.7543],[-37.8722,-5.8787],[-37.9131,-5.9035],[-37.8968,-5.9398],[-37.7642,-5.8956],[-37.7338,-5.9119]]]},"properties":{"cd_geocmu":"2401008","nome":"Apodi","uf":"RN","hc-key":"br-rn-2401008"}},{"type":"Feature","geometry":{"type":"Polygon","coordinates":[[[-38.1894,-6.0463],[-38.1843,-6.018],[-38.1444,-5.9723],[-38.1145,-5.9591],[-38.1215,-5.9458],[-38.1635,-5.9389],[-38.202,-5.9621],[-38.2522,-6.0102],[-38.1894,-6.0463]]]},"properties":{"cd_geocmu":"2411908","nome":"São Francisco do Oeste","uf":"RN","hc-key":"br-rn-2411908"}},{"type":"Feature","geometry":{"type":"Polygon","coordinates":[[[-36.0318,-6.0694],[-35.9865,-6.0983],[-35.987,-6.1429],[-35.9669,-6.1718],[-35.9182,-6.1628],[-35.8232,-6.0744],[-35.8225,-6.0732],[-35.9248,-6.0106],[-36.0318,-6.0694]]]},"properties":{"cd_geocmu":"2413706","nome":"Sítio Novo","uf":"RN","hc-key":"br-rn-2413706"}},{"type":"Feature","geometry":{"type":"Polygon","coordinates":[[[-35.3524,-6.182],[-35.3261,-6.1408],[-35.2987,-6.0721],[-35.3233,-6.0482],[-35.3651,-6.0555],[-35.4294,-6.0505],[-35.4566,-6.0785],[-35.5126,-6.0511],[-35.5454,-6.0556],[-35.5317,-6.0916],[-35.4656,-6.1216],[-35.4437,-6.1406],[-35.4135,-6.1324],[-35.3814,-6.1585],[-35.3524,-6.182]]]},"properties":{"cd_geocmu":"2407807","nome":"Monte Alegre","uf":"RN","hc-key":"br-rn-2407807"}},{"type":"Feature","geometry":{"type":"Polygon","coordinates":[[[-36.0995,-5.0772],[-36.1605,-5.0965],[-36.2425,-5.096],[-36.2901,-5.0877],[-36.3083,-5.1021],[-36.2882,-5.1245],[-36.2763,-5.2072],[-36.2758,-5.2895],[-36.1517,-5.2572],[-36.0995,-5.0772]]]},"properties":{"cd_geocmu":"2404101","nome":"Galinhos","uf":"RN","hc-key":"br-rn-2404101"}},{"type":"Feature","geometry":{"type":"Polygon","coordinates":[[[-36.4117,-6.1042],[-36.4268,-6.0926],[-36.4442,-6.0414],[-36.5218,-6.0467],[-36.5474,-6.0563],[-36.6387,-6.089],[-36.6223,-6.1318],[-36.606,-6.1245],[-36.5507,-6.1412],[-36.5092,-6.1229],[-36.492,-6.1366],[-36.4599,-6.1153],[-36.4117,-6.1042]]]},"properties":{"cd_geocmu":"2406502","nome":"Lagoa Nova","uf":"RN","hc-key":"br-rn-2406502"}},{"type":"Feature","geometry":{"type":"Polygon","coordinates":[[[-35.6647,-6.45],[-35.6698,-6.4156],[-35.683,-6.3581],[-35.7647,-6.4186],[-35.7733,-6.4828],[-35.7072,-6.4695],[-35.6647,-6.45]]]},"properties":{"cd_geocmu":"2413300","nome":"Serra de São Bento","uf":"RN","hc-key":"br-rn-2413300"}},{"type":"Feature","geometry":{"type":"Polygon","coordinates":[[[-37.3591,-6.0061],[-37.4008,-5.9625],[-37.4366,-5.9854],[-37.4475,-5.9027],[-37.4931,-5.8939],[-37.5341,-5.9231],[-37.5546,-5.9589],[-37.5931,-5.9819],[-37.5574,-6.016],[-37.5148,-6.0645],[-37.4565,-6.0967],[-37.4256,-6.0745],[-37.3591,-6.0061]]]},"properties":{"cd_geocmu":"2405207","nome":"Janduís","uf":"RN","hc-key":"br-rn-2405207"}},{"type":"Feature","geometry":{"type":"Polygon","coordinates":[[[-37.801,-6.1537],[-37.7978,-6.2173],[-37.7766,-6.2459],[-37.7424,-6.189],[-37.709,-6.177],[-37.6876,-6.1093],[-37.7111,-6.1308],[-37.7422,-6.1217],[-37.7774,-6.0678],[-37.789,-6.0909],[-37.8102,-6.114],[-37.801,-6.1537]]]},"properties":{"cd_geocmu":"2400604","nome":"Almino Afonso","uf":"RN","hc-key":"br-rn-2400604"}},{"type":"Feature","geometry":{"type":"Polygon","coordinates":[[[-36.9301,-5.131],[-36.9027,-5.1497],[-36.797,-5.1746],[-36.7486,-5.152],[-36.7291,-5.175],[-36.7216,-5.1385],[-36.7443,-5.0895],[-36.7156,-5.0809],[-36.8122,-5.0261],[-36.8557,-4.9723],[-36.9083,-4.9898],[-36.9087,-5.0809],[-36.9526,-5.0812],[-36.9751,-5.1039],[-36.9751,-5.1307],[-36.9301,-5.131]]]},"properties":{"cd_geocmu":"2410256","nome":"Porto do Mangue","uf":"RN","hc-key":"br-rn-2410256"}},{"type":"Feature","geometry":{"type":"Polygon","coordinates":[[[-35.4716,-5.8348],[-35.432,-5.8452],[-35.3086,-5.8363],[-35.282,-5.8295],[-35.2523,-5.7982],[-35.2515,-5.7766],[-35.2866,-5.7635],[-35.2913,-5.7325],[-35.2655,-5.704],[-35.3132,-5.738],[-35.361,-5.7285],[-35.4134,-5.7374],[-35.4469,-5.7334],[-35.4716,-5.8348]]]},"properties":{"cd_geocmu":"2412005","nome":"São Gonçalo do Amarante","uf":"RN","hc-key":"br-rn-2412005"}},{"type":"Feature","geometry":{"type":"Polygon","coordinates":[[[-36.9083,-4.9898],[-36.966,-4.9859],[-36.9658,-5.0219],[-37.0114,-5.0219],[-37.0284,-5.0597],[-37.0509,-5.0598],[-37.0508,-5.0966],[-37.1117,-5.0968],[-37.1114,-5.1247],[-37.1111,-5.1666],[-37.1565,-5.1667],[-37.1558,-5.2939],[-37.1261,-5.2934],[-37.0512,-5.2941],[-36.9281,-5.2938],[-36.9301,-5.131],[-36.9751,-5.1307],[-36.9751,-5.1039],[-36.9526,-5.0812],[-36.9087,-5.0809],[-36.9083,-4.9898]]]},"properties":{"cd_geocmu":"2413359","nome":"Serra do Mel","uf":"RN","hc-key":"br-rn-2413359"}},{"type":"Feature","geometry":{"type":"Polygon","coordinates":[[[-35.9255,-5.8003],[-35.924,-5.764],[-35.9396,-5.733],[-35.9342,-5.7149],[-35.9706,-5.7143],[-36.024,-5.698],[-36.0625,-5.6553],[-36.0918,-5.749],[-36.1156,-5.8092],[-36.1125,-5.8422],[-36.0996,-5.8299],[-36.0654,-5.8495],[-36.0139,-5.8352],[-35.9811,-5.8037],[-35.9255,-5.8003]]]},"properties":{"cd_geocmu":"2401909","nome":"Caiçara do Rio do Vento","uf":"RN","hc-key":"br-rn-2401909"}},{"type":"Feature","geometry":{"type":"Polygon","coordinates":[[[-37.2206,-5.7175],[-37.1768,-5.7237],[-37.1046,-5.6562],[-37.1728,-5.4905],[-37.2947,-5.4779],[-37.3824,-5.4782],[-37.4421,-5.5869],[-37.4675,-5.7523],[-37.3717,-5.7223],[-37.3131,-5.7099],[-37.2206,-5.7175]]]},"properties":{"cd_geocmu":"2414605","nome":"Upanema","uf":"RN","hc-key":"br-rn-2414605"}},{"type":"Feature","geometry":{"type":"Polygon","coordinates":[[[-35.4421,-6.4866],[-35.4078,-6.4896],[-35.3645,-6.512],[-35.3413,-6.5386],[-35.3144,-6.4496],[-35.3096,-6.4031],[-35.337,-6.3961],[-35.3729,-6.4055],[-35.4092,-6.3815],[-35.4471,-6.4058],[-35.5176,-6.4063],[-35.5442,-6.4174],[-35.5587,-6.4304],[-35.5814,-6.4841],[-35.5648,-6.4918],[-35.5124,-6.4768],[-35.4421,-6.4866]]]},"properties":{"cd_geocmu":"2408300","nome":"Nova Cruz","uf":"RN","hc-key":"br-rn-2408300"}},{"type":"Feature","geometry":{"type":"Polygon","coordinates":[[[-38.448,-6.4034],[-38.4017,-6.4096],[-38.3725,-6.4561],[-38.3438,-6.4567],[-38.3476,-6.448],[-38.3366,-6.3742],[-38.3313,-6.3287],[-38.3946,-6.3451],[-38.4087,-6.2935],[-38.4576,-6.3297],[-38.4584,-6.3302],[-38.4886,-6.3616],[-38.4834,-6.3895],[-38.448,-6.4034]]]},"properties":{"cd_geocmu":"2407005","nome":"Luís Gomes","uf":"RN","hc-key":"br-rn-2407005"}},{"type":"Feature","geometry":{"type":"Polygon","coordinates":[[[-36.8384,-5.4038],[-36.8564,-5.4009],[-36.9285,-5.3537],[-37.0294,-5.3257],[-37.0512,-5.2941],[-37.1261,-5.2934],[-37.1728,-5.4905],[-37.1046,-5.6562],[-37.0546,-5.7458],[-36.9941,-5.7717],[-37.0358,-5.891],[-37.0356,-5.8911],[-37.0154,-5.8708],[-37.0097,-5.8371],[-36.9774,-5.8136],[-36.9801,-5.7853],[-36.9615,-5.7525],[-36.8936,-5.7108],[-36.8834,-5.6406],[-36.8975,-5.6035],[-36.8825,-5.5732],[-36.9038,-5.5296],[-36.8695,-5.4781],[-36.8604,-5.4423],[-36.8384,-5.4038]]]},"properties":{"cd_geocmu":"2400208","nome":"Açu","uf":"RN","hc-key":"br-rn-2400208"}},{"type":"Feature","geometry":{"type":"Polygon","coordinates":[[[-36.1285,-5.4568],[-36.1409,-5.5002],[-36.172,-5.5447],[-36.1437,-5.5669],[-36.1432,-5.5915],[-36.0625,-5.6553],[-35.9924,-5.4638],[-36.0277,-5.4452],[-36.0633,-5.4054],[-36.1285,-5.4568]]]},"properties":{"cd_geocmu":"2409605","nome":"Pedra Preta","uf":"RN","hc-key":"br-rn-2409605"}},{"type":"Feature","geometry":{"type":"Polygon","coordinates":[[[-36.0139,-5.8352],[-36.0654,-5.8495],[-36.0996,-5.8299],[-36.1125,-5.8422],[-36.1361,-5.8639],[-36.1591,-5.8503],[-36.2129,-5.8737],[-36.2242,-5.9],[-36.2529,-5.982],[-36.2814,-6.044],[-36.3022,-6.1154],[-36.2957,-6.1222],[-36.2568,-6.158],[-36.2262,-6.1641],[-36.2252,-6.1434],[-36.1738,-6.1217],[-36.1211,-6.0889],[-36.0804,-6.102],[-36.0318,-6.0694],[-35.9768,-6.0144],[-35.9627,-5.9638],[-35.9667,-5.9013],[-36.0139,-5.8352]]]},"properties":{"cd_geocmu":"2412906","nome":"São Tomé","uf":"RN","hc-key":"br-rn-2412906"}},{"type":"Feature","geometry":{"type":"Polygon","coordinates":[[[-35.9248,-6.0106],[-35.8348,-5.9471],[-35.8498,-5.9154],[-35.8511,-5.9133],[-35.9667,-5.9013],[-35.9627,-5.9638],[-35.9768,-6.0144],[-36.0318,-6.0694],[-35.9248,-6.0106]]]},"properties":{"cd_geocmu":"2401503","nome":"Barcelona","uf":"RN","hc-key":"br-rn-2401503"}},{"type":"Feature","geometry":{"type":"Polygon","coordinates":[[[-35.4469,-5.7334],[-35.4582,-5.7178],[-35.4999,-5.717],[-35.5519,-5.7033],[-35.5577,-5.7211],[-35.6318,-5.7144],[-35.6321,-5.7144],[-35.6563,-5.718],[-35.6388,-5.79],[-35.5945,-5.8675],[-35.529,-5.8818],[-35.489,-5.8312],[-35.4716,-5.8348],[-35.4469,-5.7334]]]},"properties":{"cd_geocmu":"2404606","nome":"Ielmo Marinho","uf":"RN","hc-key":"br-rn-2404606"}},{"type":"Feature","geometry":{"type":"Polygon","coordinates":[[[-38.3396,-6.0777],[-38.3491,-6.1235],[-38.365,-6.1729],[-38.3575,-6.2014],[-38.311,-6.1764],[-38.2776,-6.181],[-38.2491,-6.1638],[-38.2749,-6.0658],[-38.3065,-6.087],[-38.3396,-6.0777]]]},"properties":{"cd_geocmu":"2403301","nome":"Encanto","uf":"RN","hc-key":"br-rn-2403301"}},{"type":"Feature","geometry":{"type":"Polygon","coordinates":[[[-35.9522,-5.2374],[-35.9083,-5.0595],[-35.981,-5.0417],[-36.0375,-5.0515],[-36.061,-5.2287],[-36.0019,-5.2561],[-35.9522,-5.2374]]]},"properties":{"cd_geocmu":"2411601","nome":"São Bento do Norte","uf":"RN","hc-key":"br-rn-2411601"}},{"type":"Feature","geometry":{"type":"Polygon","coordinates":[[[-36.7223,-6.6467],[-36.6978,-6.6196],[-36.6691,-6.6103],[-36.6797,-6.5793],[-36.7035,-6.5382],[-36.7611,-6.5157],[-36.8361,-6.5386],[-36.9053,-6.5173],[-36.9514,-6.5223],[-36.9369,-6.5777],[-36.91,-6.6076],[-36.8705,-6.6306],[-36.8167,-6.6796],[-36.7648,-6.6692],[-36.7223,-6.6467]]]},"properties":{"cd_geocmu":"2405702","nome":"Jardim do Seridó","uf":"RN","hc-key":"br-rn-2405702"}},{"type":"Feature","geometry":{"type":"Polygon","coordinates":[[[-35.8319,-5.3061],[-35.8402,-5.2346],[-35.8319,-5.21],[-35.9522,-5.2374],[-36.0019,-5.2561],[-36.0508,-5.2988],[-36.0369,-5.3012],[-36.0124,-5.3991],[-35.9755,-5.3321],[-35.8319,-5.3061]]]},"properties":{"cd_geocmu":"2408805","nome":"Parazinho","uf":"RN","hc-key":"br-rn-2408805"}},{"type":"Feature","geometry":{"type":"Polygon","coordinates":[[[-35.5018,-5.4923],[-35.4185,-5.4577],[-35.3574,-5.4701],[-35.3315,-5.4887],[-35.2975,-5.4871],[-35.2558,-5.5169],[-35.2607,-5.4806],[-35.288,-5.4606],[-35.293,-5.4328],[-35.326,-5.3813],[-35.4015,-5.4372],[-35.4816,-5.4534],[-35.5018,-5.4923]]]},"properties":{"cd_geocmu":"2407500","nome":"Maxaranguape","uf":"RN","hc-key":"br-rn-2407500"}},{"type":"Feature","geometry":{"type":"Polygon","coordinates":[[[-35.7214,-6.1731],[-35.6822,-6.1682],[-35.6538,-6.1772],[-35.6386,-6.1375],[-35.5889,-6.0968],[-35.6906,-6.0715],[-35.7816,-6.0407],[-35.7987,-6.0426],[-35.8225,-6.0732],[-35.8232,-6.0744],[-35.8208,-6.1294],[-35.8082,-6.1397],[-35.7323,-6.1425],[-35.7214,-6.1731]]]},"properties":{"cd_geocmu":"2410306","nome":"Serra Caiada","uf":"RN","hc-key":"br-rn-2410306"}},{"type":"Feature","geometry":{"type":"Polygon","coordinates":[[[-37.2184,-6.6197],[-37.1796,-6.6138],[-37.1095,-6.6568],[-37.1029,-6.6847],[-37.0353,-6.7342],[-37.0036,-6.7096],[-36.9798,-6.6416],[-36.9806,-6.6171],[-36.9369,-6.5777],[-36.9514,-6.5223],[-36.9577,-6.4917],[-36.8741,-6.4187],[-36.8608,-6.3888],[-36.8863,-6.3429],[-36.9237,-6.2944],[-36.9096,-6.2432],[-36.8953,-6.2394],[-36.9573,-6.1908],[-37.0031,-6.2217],[-37.0457,-6.2239],[-37.0809,-6.2906],[-37.0816,-6.3542],[-37.0728,-6.3925],[-37.102,-6.4176],[-37.1408,-6.428],[-37.1404,-6.4485],[-37.1885,-6.439],[-37.1953,-6.4468],[-37.2169,-6.5594],[-37.2308,-6.5695],[-37.2184,-6.6197]]]},"properties":{"cd_geocmu":"2402006","nome":"Caicó","uf":"RN","hc-key":"br-rn-2402006"}},{"type":"Feature","geometry":{"type":"Polygon","coordinates":[[[-38.4814,-6.3044],[-38.4576,-6.3297],[-38.4087,-6.2935],[-38.3793,-6.2627],[-38.3579,-6.2176],[-38.3575,-6.2014],[-38.365,-6.1729],[-38.418,-6.2188],[-38.4485,-6.2219],[-38.4815,-6.252],[-38.4814,-6.3044]]]},"properties":{"cd_geocmu":"2402907","nome":"Coronel João Pessoa","uf":"RN","hc-key":"br-rn-2402907"}},{"type":"Feature","geometry":{"type":"Polygon","coordinates":[[[-37.3143,-6.689],[-37.2639,-6.7322],[-37.2043,-6.7617],[-37.1577,-6.7396],[-37.0956,-6.7245],[-37.0754,-6.7541],[-37.0353,-6.7342],[-37.1029,-6.6847],[-37.1095,-6.6568],[-37.1796,-6.6138],[-37.2184,-6.6197],[-37.2514,-6.6469],[-37.3017,-6.6522],[-37.3143,-6.689]]]},"properties":{"cd_geocmu":"2412104","nome":"São João do Sabugi","uf":"RN","hc-key":"br-rn-2412104"}},{"type":"Feature","geometry":{"type":"Polygon","coordinates":[[[-37.3185,-6.4547],[-37.3812,-6.4371],[-37.3958,-6.5101],[-37.4212,-6.5333],[-37.4647,-6.5327],[-37.4804,-6.6052],[-37.4662,-6.66],[-37.4847,-6.71],[-37.4073,-6.6972],[-37.3427,-6.7012],[-37.3143,-6.689],[-37.3017,-6.6522],[-37.2514,-6.6469],[-37.2184,-6.6197],[-37.2308,-6.5695],[-37.2602,-6.5235],[-37.3185,-6.4547]]]},"properties":{"cd_geocmu":"2413409","nome":"Serra Negra do Norte","uf":"RN","hc-key":"br-rn-2413409"}},{"type":"Feature","geometry":{"type":"Polygon","coordinates":[[[-35.7468,-5.6197],[-35.7642,-5.6383],[-35.803,-5.6203],[-35.8552,-5.6088],[-35.8853,-5.6319],[-35.9113,-5.6297],[-35.9417,-5.6688],[-35.9342,-5.7149],[-35.9396,-5.733],[-35.7771,-5.7164],[-35.6563,-5.718],[-35.6321,-5.7144],[-35.6972,-5.6656],[-35.7079,-5.6377],[-35.7468,-5.6197]]]},"properties":{"cd_geocmu":"2401602","nome":"Bento Fernandes","uf":"RN","hc-key":"br-rn-2401602"}},{"type":"Feature","geometry":{"type":"Polygon","coordinates":[[[-35.6698,-6.4156],[-35.5587,-6.4304],[-35.5442,-6.4174],[-35.555,-6.391],[-35.597,-6.3858],[-35.6155,-6.3499],[-35.6432,-6.3258],[-35.6714,-6.3146],[-35.683,-6.3581],[-35.6698,-6.4156]]]},"properties":{"cd_geocmu":"2406205","nome":"Lagoa d'Anta","uf":"RN","hc-key":"br-rn-2406205"}},{"type":"Feature","geometry":{"type":"Polygon","coordinates":[[[-35.3096,-6.4031],[-35.3389,-6.3811],[-35.3422,-6.3153],[-35.3607,-6.3079],[-35.3499,-6.2249],[-35.3581,-6.2498],[-35.3885,-6.3228],[-35.4092,-6.3815],[-35.3729,-6.4055],[-35.337,-6.3961],[-35.3096,-6.4031]]]},"properties":{"cd_geocmu":"2414704","nome":"Várzea","uf":"RN","hc-key":"br-rn-2414704"}},{"type":"Feature","geometry":{"type":"Polygon","coordinates":[[[-37.5831,-5.2779],[-37.426,-5.3112],[-37.2958,-5.3914],[-37.3021,-5.4632],[-37.2947,-5.4779],[-37.1728,-5.4905],[-37.1261,-5.2934],[-37.1558,-5.2939],[-37.1565,-5.1667],[-37.1111,-5.1666],[-37.1114,-5.1247],[-37.1374,-5.1054],[-37.1529,-5.0539],[-37.1318,-5.0305],[-37.1366,-5.0051],[-37.1667,-5.015],[-37.1767,-4.9702],[-37.2088,-4.9917],[-37.3078,-4.9456],[-37.3453,-4.935],[-37.3651,-4.9074],[-37.4273,-4.9115],[-37.4464,-4.881],[-37.4671,-4.8859],[-37.4924,-4.9245],[-37.4984,-4.9965],[-37.4886,-5.0169],[-37.5831,-5.2779]]]},"properties":{"cd_geocmu":"2408003","nome":"Mossoró","uf":"RN","hc-key":"br-rn-2408003"}},{"type":"Feature","geometry":{"type":"Polygon","coordinates":[[[-38.5625,-6.3557],[-38.5326,-6.3417],[-38.5043,-6.3561],[-38.4584,-6.3302],[-38.4576,-6.3297],[-38.4814,-6.3044],[-38.5425,-6.2862],[-38.5704,-6.293],[-38.5821,-6.3193],[-38.5625,-6.3557]]]},"properties":{"cd_geocmu":"2414753","nome":"Venha-Ver","uf":"RN","hc-key":"br-rn-2414753"}},{"type":"Feature","geometry":{"type":"Polygon","coordinates":[[[-36.699,-5.5261],[-36.5804,-5.5288],[-36.5727,-5.5859],[-36.4699,-5.5984],[-36.4399,-5.3699],[-36.5156,-5.4022],[-36.5374,-5.4128],[-36.838,-5.3922],[-36.8384,-5.4038],[-36.8604,-5.4423],[-36.6997,-5.4638],[-36.699,-5.5261]]]},"properties":{"cd_geocmu":"2400307","nome":"Afonso Bezerra","uf":"RN","hc-key":"br-rn-2400307"}},{"type":"Feature","geometry":{"type":"Polygon","coordinates":[[[-36.334,-5.8898],[-36.3884,-5.8519],[-36.4148,-5.8584],[-36.4355,-5.9109],[-36.475,-5.9266],[-36.5404,-5.9897],[-36.5474,-6.0563],[-36.5218,-6.0467],[-36.4442,-6.0414],[-36.4487,-6.0115],[-36.4106,-6.0212],[-36.3924,-5.9898],[-36.3631,-5.9689],[-36.372,-5.8956],[-36.334,-5.8898]]]},"properties":{"cd_geocmu":"2401651","nome":"Bodó","uf":"RN","hc-key":"br-rn-2401651"}},{"type":"Feature","geometry":{"type":"Polygon","coordinates":[[[-36.8604,-5.4423],[-36.8695,-5.4781],[-36.9038,-5.5296],[-36.8825,-5.5732],[-36.8975,-5.6035],[-36.8159,-5.6426],[-36.751,-5.6468],[-36.7712,-5.6059],[-36.7253,-5.5738],[-36.699,-5.5261],[-36.6997,-5.4638],[-36.8604,-5.4423]]]},"properties":{"cd_geocmu":"2404705","nome":"Ipanguaçu","uf":"RN","hc-key":"br-rn-2404705"}},{"type":"Feature","geometry":{"type":"Polygon","coordinates":[[[-36.5602,-6.8408],[-36.5749,-6.8062],[-36.6115,-6.7998],[-36.6343,-6.8177],[-36.6762,-6.8172],[-36.6927,-6.8331],[-36.726,-6.8166],[-36.7302,-6.8364],[-36.76,-6.9145],[-36.7665,-6.9359],[-36.7374,-6.9728],[-36.7093,-6.9747],[-36.6872,-6.926],[-36.6549,-6.9282],[-36.6036,-6.9305],[-36.5679,-6.8748],[-36.5602,-6.8408]]]},"properties":{"cd_geocmu":"2403400","nome":"Equador","uf":"RN","hc-key":"br-rn-2403400"}},{"type":"Feature","geometry":{"type":"Polygon","coordinates":[[[-35.9113,-5.6297],[-35.8853,-5.6319],[-35.8552,-5.6088],[-35.803,-5.6203],[-35.7642,-5.6383],[-35.7468,-5.6197],[-35.7451,-5.4583],[-35.7644,-5.4516],[-35.7772,-5.4428],[-35.8142,-5.4648],[-35.8319,-5.3061],[-35.9755,-5.3321],[-36.0124,-5.3991],[-35.9924,-5.4638],[-35.9113,-5.6297]]]},"properties":{"cd_geocmu":"2405801","nome":"João Câmara","uf":"RN","hc-key":"br-rn-2405801"}},{"type":"Feature","geometry":{"type":"Polygon","coordinates":[[[-35.6388,-5.79],[-35.6563,-5.718],[-35.7771,-5.7164],[-35.7796,-5.8152],[-35.7968,-5.8533],[-35.7421,-5.8723],[-35.7039,-5.8615],[-35.6832,-5.869],[-35.6679,-5.7943],[-35.6388,-5.79]]]},"properties":{"cd_geocmu":"2409332","nome":"Santa Maria","uf":"RN","hc-key":"br-rn-2409332"}},{"type":"Feature","geometry":{"type":"Polygon","coordinates":[[[-37.709,-6.177],[-37.6732,-6.1906],[-37.6162,-6.1762],[-37.5696,-6.1554],[-37.54,-6.1659],[-37.5219,-6.1518],[-37.5774,-6.034],[-37.5574,-6.016],[-37.5931,-5.9819],[-37.6486,-5.9413],[-37.657,-5.992],[-37.6745,-6.0174],[-37.6724,-6.0479],[-37.6876,-6.1093],[-37.709,-6.177]]]},"properties":{"cd_geocmu":"2409308","nome":"Patu","uf":"RN","hc-key":"br-rn-2409308"}},{"type":"Feature","geometry":{"type":"Polygon","coordinates":[[[-35.6256,-5.4923],[-35.5652,-5.4937],[-35.5376,-5.5125],[-35.5018,-5.4923],[-35.4816,-5.4534],[-35.4185,-5.3328],[-35.4578,-5.3239],[-35.5344,-5.3388],[-35.5859,-5.3101],[-35.6417,-5.3345],[-35.7189,-5.3892],[-35.7644,-5.4516],[-35.7451,-5.4583],[-35.6813,-5.464],[-35.6256,-5.4923]]]},"properties":{"cd_geocmu":"2410405","nome":"Pureza","uf":"RN","hc-key":"br-rn-2410405"}},{"type":"Feature","geometry":{"type":"Polygon","coordinates":[[[-36.1338,-6.2106],[-36.1575,-6.166],[-36.2262,-6.1641],[-36.2568,-6.158],[-36.2583,-6.2432],[-36.295,-6.2921],[-36.2791,-6.3176],[-36.1816,-6.2979],[-36.1538,-6.2998],[-36.1338,-6.2106]]]},"properties":{"cd_geocmu":"2402105","nome":"Campo Redondo","uf":"RN","hc-key":"br-rn-2402105"}},{"type":"Feature","geometry":{"type":"Polygon","coordinates":[[[-36.0961,-6.4202],[-36.0768,-6.4056],[-36.0053,-6.4811],[-35.9652,-6.4844],[-35.9655,-6.471],[-36.0338,-6.2993],[-36.0707,-6.3024],[-36.1394,-6.3298],[-36.0961,-6.4202]]]},"properties":{"cd_geocmu":"2411700","nome":"São Bento do Trairí","uf":"RN","hc-key":"br-rn-2411700"}},{"type":"Feature","geometry":{"type":"Polygon","coordinates":[[[-36.726,-6.8166],[-36.6927,-6.8331],[-36.6762,-6.8172],[-36.6343,-6.8177],[-36.6115,-6.7998],[-36.5749,-6.8062],[-36.5602,-6.8408],[-36.5437,-6.8421],[-36.51,-6.8179],[-36.5048,-6.7539],[-36.5335,-6.7335],[-36.5587,-6.7077],[-36.5207,-6.6106],[-36.55,-6.608],[-36.5875,-6.5848],[-36.6364,-6.5924],[-36.6797,-6.5793],[-36.6691,-6.6103],[-36.6978,-6.6196],[-36.7223,-6.6467],[-36.7066,-6.6799],[-36.7121,-6.7532],[-36.7313,-6.7921],[-36.726,-6.8166]]]},"properties":{"cd_geocmu":"2408904","nome":"Parelhas","uf":"RN","hc-key":"br-rn-2408904"}},{"type":"Feature","geometry":{"type":"Polygon","coordinates":[[[-35.326,-5.3813],[-35.3549,-5.3548],[-35.3707,-5.2846],[-35.3824,-5.27],[-35.4185,-5.3328],[-35.4816,-5.4534],[-35.4015,-5.4372],[-35.326,-5.3813]]]},"properties":{"cd_geocmu":"2408953","nome":"Rio do Fogo","uf":"RN","hc-key":"br-rn-2408953"}},{"type":"Feature","geometry":{"type":"Polygon","coordinates":[[[-37.3591,-6.0061],[-37.4256,-6.0745],[-37.4565,-6.0967],[-37.5148,-6.0645],[-37.5574,-6.016],[-37.5774,-6.034],[-37.5219,-6.1518],[-37.4589,-6.145],[-37.4457,-6.1122],[-37.3936,-6.1094],[-37.3788,-6.0851],[-37.3826,-6.0669],[-37.3591,-6.0061]]]},"properties":{"cd_geocmu":"2407609","nome":"Messias Targino","uf":"RN","hc-key":"br-rn-2407609"}},{"type":"Feature","geometry":{"type":"Polygon","coordinates":[[[-37.9633,-6.2565],[-38.0635,-6.2536],[-38.0998,-6.3303],[-38.0565,-6.3112],[-38.0311,-6.3212],[-37.9839,-6.3106],[-37.9633,-6.2565]]]},"properties":{"cd_geocmu":"2410009","nome":"Pilões","uf":"RN","hc-key":"br-rn-2410009"}},{"type":"Feature","geometry":{"type":"Polygon","coordinates":[[[-35.4185,-5.3328],[-35.3824,-5.27],[-35.4167,-5.221],[-35.4589,-5.197],[-35.4895,-5.157],[-35.572,-5.1343],[-35.6171,-5.114],[-35.6296,-5.1991],[-35.6829,-5.2774],[-35.7054,-5.2941],[-35.7619,-5.2936],[-35.8319,-5.3061],[-35.8142,-5.4648],[-35.7772,-5.4428],[-35.7644,-5.4516],[-35.7189,-5.3892],[-35.6417,-5.3345],[-35.5859,-5.3101],[-35.5344,-5.3388],[-35.4578,-5.3239],[-35.4185,-5.3328]]]},"properties":{"cd_geocmu":"2414407","nome":"Touros","uf":"RN","hc-key":"br-rn-2414407"}},{"type":"Feature","geometry":{"type":"Polygon","coordinates":[[[-35.5677,-6.2057],[-35.4685,-6.2307],[-35.4364,-6.2534],[-35.403,-6.2103],[-35.3814,-6.1585],[-35.4135,-6.1324],[-35.4437,-6.1406],[-35.4455,-6.1541],[-35.527,-6.2013],[-35.5504,-6.1999],[-35.5677,-6.2057]]]},"properties":{"cd_geocmu":"2406304","nome":"Lagoa de Pedras","uf":"RN","hc-key":"br-rn-2406304"}},{"type":"Feature","geometry":{"type":"Polygon","coordinates":[[[-35.5454,-6.0556],[-35.5126,-6.0511],[-35.4566,-6.0785],[-35.4294,-6.0505],[-35.3651,-6.0555],[-35.3821,-6.0218],[-35.3734,-5.9874],[-35.5467,-6.054],[-35.5454,-6.0556]]]},"properties":{"cd_geocmu":"2414803","nome":"Vera Cruz","uf":"RN","hc-key":"br-rn-2414803"}},{"type":"Feature","geometry":{"type":"Polygon","coordinates":[[[-35.7987,-6.0426],[-35.7816,-6.0407],[-35.6906,-6.0715],[-35.5889,-6.0968],[-35.5708,-6.0795],[-35.6475,-6.016],[-35.6502,-5.9764],[-35.6684,-5.9839],[-35.7092,-6.0006],[-35.7783,-6.0159],[-35.7987,-6.0426]]]},"properties":{"cd_geocmu":"2413102","nome":"Senador Elói de Souza","uf":"RN","hc-key":"br-rn-2413102"}},{"type":"Feature","geometry":{"type":"Polygon","coordinates":[[[-36.0965,-6.4203],[-36.2212,-6.4028],[-36.2963,-6.3704],[-36.2916,-6.396],[-36.2512,-6.4044],[-36.2265,-6.434],[-36.1745,-6.4308],[-36.1102,-6.4292],[-36.0965,-6.4203]]]},"properties":{"cd_geocmu":"2405009","nome":"Jaçanã","uf":"RN","hc-key":"br-rn-2405009"}},{"type":"Feature","geometry":{"type":"Polygon","coordinates":[[[-38.2776,-6.181],[-38.311,-6.1764],[-38.3575,-6.2014],[-38.3579,-6.2176],[-38.3016,-6.2413],[-38.272,-6.2226],[-38.2776,-6.181]]]},"properties":{"cd_geocmu":"2400406","nome":"Água Nova","uf":"RN","hc-key":"br-rn-2400406"}},{"type":"Feature","geometry":{"type":"Polygon","coordinates":[[[-35.5519,-5.7033],[-35.4999,-5.717],[-35.4582,-5.7178],[-35.4469,-5.7334],[-35.4134,-5.7374],[-35.361,-5.7285],[-35.2848,-5.6243],[-35.2271,-5.6121],[-35.2283,-5.5751],[-35.2558,-5.5169],[-35.2975,-5.4871],[-35.3315,-5.4887],[-35.3574,-5.4701],[-35.4185,-5.4577],[-35.5018,-5.4923],[-35.5214,-5.5777],[-35.5121,-5.6501],[-35.4944,-5.666],[-35.5482,-5.6881],[-35.5519,-5.7033]]]},"properties":{"cd_geocmu":"2402600","nome":"Ceará-Mirim","uf":"RN","hc-key":"br-rn-2402600"}},{"type":"Feature","geometry":{"type":"Polygon","coordinates":[[[-35.5577,-6.0468],[-35.5374,-5.9957],[-35.5556,-5.9485],[-35.5722,-5.9323],[-35.6502,-5.9764],[-35.6475,-6.016],[-35.5708,-6.0795],[-35.5577,-6.0468]]]},"properties":{"cd_geocmu":"2401701","nome":"Bom Jesus","uf":"RN","hc-key":"br-rn-2401701"}},{"type":"Feature","geometry":{"type":"Polygon","coordinates":[[[-37.195,-5.8237],[-37.2605,-5.9086],[-37.1623,-6.0212],[-37.1545,-5.9926],[-37.1222,-5.9549],[-37.0669,-5.9846],[-37.0356,-5.8911],[-37.0358,-5.891],[-37.1012,-5.8724],[-37.1487,-5.8663],[-37.195,-5.8237]]]},"properties":{"cd_geocmu":"2414456","nome":"Triunfo Potiguar","uf":"RN","hc-key":"br-rn-2414456"}},{"type":"Feature","geometry":{"type":"Polygon","coordinates":[[[-35.2824,-5.8498],[-35.254,-5.8658],[-35.2179,-5.8686],[-35.1762,-5.8998],[-35.1541,-5.8978],[-35.1793,-5.8645],[-35.1793,-5.7989],[-35.2036,-5.7432],[-35.2655,-5.704],[-35.2913,-5.7325],[-35.2866,-5.7635],[-35.2515,-5.7766],[-35.2523,-5.7982],[-35.282,-5.8295],[-35.2824,-5.8498]]]},"properties":{"cd_geocmu":"2408102","nome":"Natal","uf":"RN","hc-key":"br-rn-2408102"}},{"type":"Feature","geometry":{"type":"Polygon","coordinates":[[[-38.2491,-6.1638],[-38.2072,-6.1556],[-38.1735,-6.17],[-38.1696,-6.1941],[-38.1292,-6.1758],[-38.0573,-6.1957],[-38.0417,-6.1691],[-38.0438,-6.126],[-38.1035,-6.1138],[-38.1477,-6.0961],[-38.1894,-6.0463],[-38.2522,-6.0102],[-38.2526,-6.0431],[-38.2749,-6.0658],[-38.2491,-6.1638]]]},"properties":{"cd_geocmu":"2409407","nome":"Pau dos Ferros","uf":"RN","hc-key":"br-rn-2409407"}},{"type":"Feature","geometry":{"type":"Polygon","coordinates":[[[-35.9396,-5.733],[-35.924,-5.764],[-35.9255,-5.8003],[-35.8511,-5.9133],[-35.8498,-5.9154],[-35.8327,-5.9088],[-35.7968,-5.8533],[-35.7796,-5.8152],[-35.7771,-5.7164],[-35.9396,-5.733]]]},"properties":{"cd_geocmu":"2410900","nome":"Riachuelo","uf":"RN","hc-key":"br-rn-2410900"}},{"type":"Feature","geometry":{"type":"Polygon","coordinates":[[[-35.529,-5.8818],[-35.5945,-5.8675],[-35.6388,-5.79],[-35.6679,-5.7943],[-35.6832,-5.869],[-35.6875,-5.9191],[-35.6684,-5.9839],[-35.6502,-5.9764],[-35.5722,-5.9323],[-35.529,-5.8818]]]},"properties":{"cd_geocmu":"2412708","nome":"São Pedro","uf":"RN","hc-key":"br-rn-2412708"}},{"type":"Feature","geometry":{"type":"Polygon","coordinates":[[[-37.4475,-5.9027],[-37.4366,-5.9854],[-37.4008,-5.9625],[-37.3591,-6.0061],[-37.3826,-6.0669],[-37.3788,-6.0851],[-37.2956,-6.0501],[-37.2725,-6.0557],[-37.2565,-6.0285],[-37.2319,-6.0276],[-37.1739,-6.048],[-37.1623,-6.0212],[-37.2605,-5.9086],[-37.195,-5.8237],[-37.2254,-5.7898],[-37.2206,-5.7175],[-37.3131,-5.7099],[-37.3717,-5.7223],[-37.4675,-5.7523],[-37.4475,-5.9027]]]},"properties":{"cd_geocmu":"2401305","nome":"Campo Grande","uf":"RN","hc-key":"br-rn-2401305"}},{"type":"Feature","geometry":{"type":"Polygon","coordinates":[[[-37.1386,-4.9479],[-37.1576,-4.9454],[-37.221,-4.8814],[-37.269,-4.9117],[-37.2704,-4.9455],[-37.3078,-4.9456],[-37.2088,-4.9917],[-37.1767,-4.9702],[-37.1667,-5.015],[-37.1366,-5.0051],[-37.1473,-4.9752],[-37.1386,-4.9479]]]},"properties":{"cd_geocmu":"2404408","nome":"Grossos","uf":"RN","hc-key":"br-rn-2404408"}},{"type":"Feature","geometry":{"type":"Polygon","coordinates":[[[-36.6223,-6.1318],[-36.6189,-6.1924],[-36.5916,-6.2477],[-36.6046,-6.2904],[-36.565,-6.3123],[-36.5509,-6.3619],[-36.5044,-6.3865],[-36.4998,-6.3582],[-36.4326,-6.3631],[-36.3946,-6.294],[-36.344,-6.3025],[-36.3136,-6.2834],[-36.295,-6.2921],[-36.2583,-6.2432],[-36.2568,-6.158],[-36.2957,-6.1222],[-36.3434,-6.0979],[-36.4117,-6.1042],[-36.4599,-6.1153],[-36.492,-6.1366],[-36.5092,-6.1229],[-36.5507,-6.1412],[-36.606,-6.1245],[-36.6223,-6.1318]]]},"properties":{"cd_geocmu":"2403103","nome":"Currais Novos","uf":"RN","hc-key":"br-rn-2403103"}},{"type":"Feature","geometry":{"type":"Polygon","coordinates":[[[-36.2848,-5.8593],[-36.3564,-5.849],[-36.3892,-5.7954],[-36.5092,-5.7559],[-36.5504,-5.7694],[-36.5679,-5.7576],[-36.6301,-5.7587],[-36.6576,-5.7425],[-36.6747,-5.7061],[-36.7027,-5.7014],[-36.7549,-5.7586],[-36.7897,-5.7552],[-36.7758,-5.8019],[-36.7736,-5.861],[-36.8181,-5.9131],[-36.8937,-5.975],[-36.8587,-5.9846],[-36.849,-6.0103],[-36.8554,-6.0443],[-36.8125,-6.0532],[-36.7934,-6.0401],[-36.7666,-6.0562],[-36.7309,-6.0566],[-36.7199,-6.0953],[-36.6533,-6.1118],[-36.6387,-6.089],[-36.5474,-6.0563],[-36.5404,-5.9897],[-36.475,-5.9266],[-36.4355,-5.9109],[-36.4148,-5.8584],[-36.3884,-5.8519],[-36.334,-5.8898],[-36.3207,-5.8656],[-36.2848,-5.8593]]]},"properties":{"cd_geocmu":"2411403","nome":"Santana do Matos","uf":"RN","hc-key":"br-rn-2411403"}},{"type":"Feature","geometry":{"type":"Polygon","coordinates":[[[-36.2262,-6.1641],[-36.1575,-6.166],[-36.1338,-6.2106],[-36.0779,-6.1961],[-36.0804,-6.102],[-36.1211,-6.0889],[-36.1738,-6.1217],[-36.2252,-6.1434],[-36.2262,-6.1641]]]},"properties":{"cd_geocmu":"2406809","nome":"Lajes Pintadas","uf":"RN","hc-key":"br-rn-2406809"}},{"type":"Feature","geometry":{"type":"Polygon","coordinates":[[[-35.9342,-5.7149],[-35.9417,-5.6688],[-35.9113,-5.6297],[-35.9924,-5.4638],[-36.0625,-5.6553],[-36.024,-5.698],[-35.9706,-5.7143],[-35.9342,-5.7149]]]},"properties":{"cd_geocmu":"2405504","nome":"Jardim de Angicos","uf":"RN","hc-key":"br-rn-2405504"}},{"type":"Feature","geometry":{"type":"Polygon","coordinates":[[[-38.2527,-6.4184],[-38.2867,-6.3918],[-38.3068,-6.4261],[-38.3476,-6.448],[-38.3438,-6.4567],[-38.2887,-6.5056],[-38.2565,-6.4832],[-38.229,-6.4833],[-38.2527,-6.4184]]]},"properties":{"cd_geocmu":"2408607","nome":"Paraná","uf":"RN","hc-key":"br-rn-2408607"}},{"type":"Feature","geometry":{"type":"Polygon","coordinates":[[[-38.0573,-6.1957],[-38.1292,-6.1758],[-38.1696,-6.1941],[-38.1939,-6.2206],[-38.2491,-6.2493],[-38.2476,-6.2897],[-38.2475,-6.3338],[-38.2253,-6.357],[-38.2385,-6.3856],[-38.1647,-6.3868],[-38.1256,-6.3672],[-38.0998,-6.3303],[-38.0635,-6.2536],[-38.0573,-6.1957]]]},"properties":{"cd_geocmu":"2407302","nome":"Marcelino Vieira","uf":"RN","hc-key":"br-rn-2407302"}},{"type":"Feature","geometry":{"type":"Polygon","coordinates":[[[-35.7468,-5.6197],[-35.7079,-5.6377],[-35.6972,-5.6656],[-35.6321,-5.7144],[-35.6318,-5.7144],[-35.6415,-5.6294],[-35.6585,-5.5865],[-35.6682,-5.4963],[-35.6256,-5.4923],[-35.6813,-5.464],[-35.7451,-5.4583],[-35.7468,-5.6197]]]},"properties":{"cd_geocmu":"2410108","nome":"Poço Branco","uf":"RN","hc-key":"br-rn-2410108"}},{"type":"Feature","geometry":{"type":"Polygon","coordinates":[[[-37.9633,-6.2565],[-37.8818,-6.2731],[-37.8501,-6.2559],[-37.7944,-6.2565],[-37.7766,-6.2459],[-37.7978,-6.2173],[-37.8895,-6.1669],[-37.8952,-6.1534],[-37.9471,-6.1605],[-37.9932,-6.2103],[-38.0224,-6.2095],[-38.0417,-6.1691],[-38.0573,-6.1957],[-38.0635,-6.2536],[-37.9633,-6.2565]]]},"properties":{"cd_geocmu":"2400901","nome":"Antônio Martins","uf":"RN","hc-key":"br-rn-2400901"}},{"type":"Feature","geometry":{"type":"Polygon","coordinates":[[[-36.7223,-6.6467],[-36.7648,-6.6692],[-36.8167,-6.6796],[-36.8426,-6.6746],[-36.835,-6.7311],[-36.7727,-6.7871],[-36.7695,-6.8387],[-36.7302,-6.8364],[-36.726,-6.8166],[-36.7313,-6.7921],[-36.7121,-6.7532],[-36.7066,-6.6799],[-36.7223,-6.6467]]]},"properties":{"cd_geocmu":"2411429","nome":"Santana do Seridó","uf":"RN","hc-key":"br-rn-2411429"}},{"type":"Feature","geometry":{"type":"Polygon","coordinates":[[[-36.4117,-6.1042],[-36.3434,-6.0979],[-36.2957,-6.1222],[-36.3022,-6.1154],[-36.2814,-6.044],[-36.2529,-5.982],[-36.2242,-5.9],[-36.258,-5.8648],[-36.2848,-5.8593],[-36.3207,-5.8656],[-36.334,-5.8898],[-36.372,-5.8956],[-36.3631,-5.9689],[-36.3924,-5.9898],[-36.4106,-6.0212],[-36.4487,-6.0115],[-36.4442,-6.0414],[-36.4268,-6.0926],[-36.4117,-6.1042]]]},"properties":{"cd_geocmu":"2402709","nome":"Cerro Corá","uf":"RN","hc-key":"br-rn-2402709"}},{"type":"Feature","geometry":{"type":"Polygon","coordinates":[[[-37.9339,-6.0043],[-37.8972,-6.0079],[-37.8615,-6.0309],[-37.8458,-6.0569],[-37.789,-6.0909],[-37.7774,-6.0678],[-37.783,-6.0407],[-37.7722,-6.0018],[-37.7736,-5.9617],[-37.7567,-5.9401],[-37.713,-5.9191],[-37.7338,-5.9119],[-37.7642,-5.8956],[-37.8968,-5.9398],[-37.9212,-5.9598],[-37.9339,-6.0043]]]},"properties":{"cd_geocmu":"2414506","nome":"Umarizal","uf":"RN","hc-key":"br-rn-2414506"}},{"type":"Feature","geometry":{"type":"Polygon","coordinates":[[[-35.157,-6.1482],[-35.1108,-6.1869],[-35.0939,-6.1834],[-35.0978,-6.1398],[-35.157,-6.1482]]]},"properties":{"cd_geocmu":"2413201","nome":"Senador Georgino Avelino","uf":"RN","hc-key":"br-rn-2413201"}},{"type":"Feature","geometry":{"type":"Polygon","coordinates":[[[-36.7291,-5.175],[-36.7153,-5.2145],[-36.7257,-5.262],[-36.7546,-5.2727],[-36.6644,-5.3722],[-36.5554,-5.3949],[-36.5374,-5.4128],[-36.5156,-5.4022],[-36.5148,-5.3019],[-36.5421,-5.3015],[-36.5354,-5.2638],[-36.5643,-5.2182],[-36.7291,-5.175]]]},"properties":{"cd_geocmu":"2409902","nome":"Pendências","uf":"RN","hc-key":"br-rn-2409902"}},{"type":"Feature","geometry":{"type":"Polygon","coordinates":[[[-34.9685,-6.4872],[-34.9749,-6.4196],[-34.9921,-6.3709],[-35.0196,-6.3657],[-35.0319,-6.3108],[-35.0677,-6.3464],[-35.0628,-6.362],[-35.1273,-6.412],[-35.1101,-6.4461],[-35.1125,-6.5051],[-35.0955,-6.4977],[-35.0577,-6.5278],[-35.0285,-6.5055],[-34.9685,-6.4872]]]},"properties":{"cd_geocmu":"2401404","nome":"Baía Formosa","uf":"RN","hc-key":"br-rn-2401404"}},{"type":"Feature","geometry":{"type":"Polygon","coordinates":[[[-38.3366,-6.3742],[-38.2867,-6.3918],[-38.2527,-6.4184],[-38.2385,-6.3856],[-38.2253,-6.357],[-38.2475,-6.3338],[-38.2476,-6.2897],[-38.2976,-6.2781],[-38.3334,-6.3116],[-38.3313,-6.3287],[-38.3366,-6.3742]]]},"properties":{"cd_geocmu":"2406007","nome":"José da Penha","uf":"RN","hc-key":"br-rn-2406007"}},{"type":"Feature","geometry":{"type":"Polygon","coordinates":[[[-36.7611,-6.5157],[-36.7035,-6.5382],[-36.6797,-6.5793],[-36.6117,-6.4986],[-36.5813,-6.4743],[-36.5282,-6.4793],[-36.531,-6.4521],[-36.5044,-6.3865],[-36.5509,-6.3619],[-36.565,-6.3123],[-36.6046,-6.2904],[-36.632,-6.2686],[-36.6625,-6.2785],[-36.71,-6.2781],[-36.7433,-6.3075],[-36.7542,-6.3205],[-36.7423,-6.3929],[-36.7612,-6.4785],[-36.7743,-6.473],[-36.7611,-6.5157]]]},"properties":{"cd_geocmu":"2400109","nome":"Acari","uf":"RN","hc-key":"br-rn-2400109"}},{"type":"Feature","geometry":{"type":"Polygon","coordinates":[[[-37.7882,-5.2192],[-37.5831,-5.2779],[-37.4886,-5.0169],[-37.4984,-4.9965],[-37.4924,-4.9245],[-37.4671,-4.8859],[-37.6403,-4.9264],[-37.6772,-5.0529],[-37.7251,-5.0706],[-37.7334,-5.1006],[-37.765,-5.1396],[-37.7882,-5.2192]]]},"properties":{"cd_geocmu":"2401453","nome":"Baraúna","uf":"RN","hc-key":"br-rn-2401453"}},{"type":"Feature","geometry":{"type":"Polygon","coordinates":[[[-35.6368,-6.4544],[-35.6041,-6.4592],[-35.5814,-6.4841],[-35.5587,-6.4304],[-35.6698,-6.4156],[-35.6647,-6.45],[-35.6368,-6.4544]]]},"properties":{"cd_geocmu":"2409100","nome":"Passa e Fica","uf":"RN","hc-key":"br-rn-2409100"}},{"type":"Feature","geometry":{"type":"Polygon","coordinates":[[[-36.7897,-5.7552],[-36.8492,-5.7241],[-36.8936,-5.7108],[-36.9615,-5.7525],[-36.9801,-5.7853],[-36.9774,-5.8136],[-36.9589,-5.8538],[-36.938,-5.8707],[-36.9731,-5.9128],[-36.9514,-5.9297],[-36.9366,-5.9684],[-36.8937,-5.975],[-36.8181,-5.9131],[-36.7736,-5.861],[-36.7758,-5.8019],[-36.7897,-5.7552]]]},"properties":{"cd_geocmu":"2412807","nome":"São Rafael","uf":"RN","hc-key":"br-rn-2412807"}},{"type":"Feature","geometry":{"type":"Polygon","coordinates":[[[-36.3682,-5.2508],[-36.2758,-5.2895],[-36.2763,-5.2072],[-36.2882,-5.1245],[-36.3083,-5.1021],[-36.3316,-5.087],[-36.4068,-5.0807],[-36.4306,-5.1331],[-36.3682,-5.2508]]]},"properties":{"cd_geocmu":"2404507","nome":"Guamaré","uf":"RN","hc-key":"br-rn-2404507"}},{"type":"Feature","geometry":{"type":"Polygon","coordinates":[[[-38.466,-6.1214],[-38.4088,-6.1779],[-38.374,-6.1672],[-38.3491,-6.1235],[-38.3396,-6.0777],[-38.3678,-6.0876],[-38.3818,-6.0535],[-38.4048,-6.0573],[-38.4331,-6.0781],[-38.466,-6.1214]]]},"properties":{"cd_geocmu":"2403202","nome":"Doutor Severiano","uf":"RN","hc-key":"br-rn-2403202"}},{"type":"Feature","geometry":{"type":"Polygon","coordinates":[[[-37.864,-6.104],[-37.801,-6.1537],[-37.8102,-6.114],[-37.789,-6.0909],[-37.8458,-6.0569],[-37.8324,-6.0822],[-37.864,-6.104]]]},"properties":{"cd_geocmu":"2406908","nome":"Lucrécia","uf":"RN","hc-key":"br-rn-2406908"}},{"type":"Feature","geometry":{"type":"Polygon","coordinates":[[[-35.0443,-6.2838],[-35.0756,-6.2659],[-35.1168,-6.2818],[-35.1174,-6.3338],[-35.0845,-6.3399],[-35.0555,-6.327],[-35.0634,-6.2979],[-35.0443,-6.2838]]]},"properties":{"cd_geocmu":"2415008","nome":"Vila Flor","uf":"RN","hc-key":"br-rn-2415008"}},{"type":"Feature","geometry":{"type":"Polygon","coordinates":[[[-37.3888,-6.391],[-37.3812,-6.4371],[-37.3185,-6.4547],[-37.2609,-6.4043],[-37.2195,-6.3681],[-37.2166,-6.2455],[-37.193,-6.2123],[-37.1407,-6.181],[-37.1569,-6.1525],[-37.2016,-6.2057],[-37.2336,-6.2131],[-37.2706,-6.2517],[-37.2731,-6.28],[-37.3151,-6.2782],[-37.334,-6.3083],[-37.3634,-6.3222],[-37.3888,-6.391]]]},"properties":{"cd_geocmu":"2405603","nome":"Jardim de Piranhas","uf":"RN","hc-key":"br-rn-2405603"}},{"type":"Feature","geometry":{"type":"Polygon","coordinates":[[[-37.981,-6.0756],[-37.9544,-6.0296],[-37.9828,-5.9685],[-38.0263,-5.991],[-38.0435,-6.0082],[-38.0867,-6.015],[-38.0334,-6.06],[-38.0088,-6.0964],[-37.981,-6.0756]]]},"properties":{"cd_geocmu":"2410207","nome":"Portalegre","uf":"RN","hc-key":"br-rn-2410207"}},{"type":"Feature","geometry":{"type":"Polygon","coordinates":[[[-35.2961,-5.9582],[-35.2462,-5.9542],[-35.212,-5.9348],[-35.1827,-5.9378],[-35.121,-5.9817],[-35.153,-5.947],[-35.1541,-5.8978],[-35.1762,-5.8998],[-35.2179,-5.8686],[-35.254,-5.8658],[-35.2824,-5.8498],[-35.2961,-5.9582]]]},"properties":{"cd_geocmu":"2403251","nome":"Parnamirim","uf":"RN","hc-key":"br-rn-2403251"}},{"type":"Feature","geometry":{"type":"Polygon","coordinates":[[[-36.9514,-6.5223],[-36.9053,-6.5173],[-36.8361,-6.5386],[-36.7611,-6.5157],[-36.7743,-6.473],[-36.8031,-6.4636],[-36.8202,-6.4388],[-36.8741,-6.4187],[-36.9577,-6.4917],[-36.9514,-6.5223]]]},"properties":{"cd_geocmu":"2412401","nome":"São José do Seridó","uf":"RN","hc-key":"br-rn-2412401"}},{"type":"Feature","geometry":{"type":"Polygon","coordinates":[[[-35.5442,-6.4174],[-35.5176,-6.4063],[-35.4471,-6.4058],[-35.4092,-6.3815],[-35.3885,-6.3228],[-35.4254,-6.3194],[-35.4209,-6.2732],[-35.4364,-6.2534],[-35.4685,-6.2307],[-35.4691,-6.2736],[-35.5031,-6.2977],[-35.5534,-6.2847],[-35.6432,-6.3258],[-35.6155,-6.3499],[-35.597,-6.3858],[-35.555,-6.391],[-35.5442,-6.4174]]]},"properties":{"cd_geocmu":"2411502","nome":"Santo Antônio","uf":"RN","hc-key":"br-rn-2411502"}},{"type":"Feature","geometry":{"type":"Polygon","coordinates":[[[-37.195,-5.8237],[-37.1487,-5.8663],[-37.1012,-5.8724],[-37.0358,-5.891],[-36.9941,-5.7717],[-37.0546,-5.7458],[-37.1046,-5.6562],[-37.1768,-5.7237],[-37.2206,-5.7175],[-37.2254,-5.7898],[-37.195,-5.8237]]]},"properties":{"cd_geocmu":"2408706","nome":"Paraú","uf":"RN","hc-key":"br-rn-2408706"}},{"type":"Feature","geometry":{"type":"Polygon","coordinates":[[[-37.9471,-6.1605],[-37.8952,-6.1534],[-37.8895,-6.1669],[-37.8587,-6.1236],[-37.864,-6.104],[-37.8324,-6.0822],[-37.8458,-6.0569],[-37.8615,-6.0309],[-37.8972,-6.0079],[-37.9339,-6.0043],[-37.9544,-6.0296],[-37.981,-6.0756],[-37.9411,-6.0992],[-37.9471,-6.1605]]]},"properties":{"cd_geocmu":"2407401","nome":"Martins","uf":"RN","hc-key":"br-rn-2407401"}},{"type":"Feature","geometry":{"type":"Polygon","coordinates":[[[-36.2963,-6.3704],[-36.2212,-6.4028],[-36.0965,-6.4203],[-36.0961,-6.4202],[-36.1394,-6.3298],[-36.1538,-6.2998],[-36.1816,-6.2979],[-36.2791,-6.3176],[-36.2767,-6.3404],[-36.2963,-6.3704]]]},"properties":{"cd_geocmu":"2402808","nome":"Coronel Ezequiel","uf":"RN","hc-key":"br-rn-2402808"}},{"type":"Feature","geometry":{"type":"Polygon","coordinates":[[[-35.9667,-5.9013],[-35.8511,-5.9133],[-35.9255,-5.8003],[-35.9811,-5.8037],[-36.0139,-5.8352],[-35.9667,-5.9013]]]},"properties":{"cd_geocmu":"2411106","nome":"Ruy Barbosa","uf":"RN","hc-key":"br-rn-2411106"}},{"type":"Feature","geometry":{"type":"Polygon","coordinates":[[[-35.0334,-6.2864],[-35.036,-6.2354],[-35.0622,-6.2258],[-35.0939,-6.1834],[-35.1108,-6.1869],[-35.1499,-6.2181],[-35.1554,-6.2677],[-35.1453,-6.299],[-35.1168,-6.2818],[-35.0756,-6.2659],[-35.0443,-6.2838],[-35.0334,-6.2864]]]},"properties":{"cd_geocmu":"2414209","nome":"Tibau do Sul","uf":"RN","hc-key":"br-rn-2414209"}},{"type":"Feature","geometry":{"type":"Polygon","coordinates":[[[-36.8937,-5.975],[-36.9366,-5.9684],[-36.9514,-5.9297],[-36.9731,-5.9128],[-36.938,-5.8707],[-36.9589,-5.8538],[-36.9774,-5.8136],[-37.0097,-5.8371],[-37.0154,-5.8708],[-37.0356,-5.8911],[-37.0669,-5.9846],[-37.1222,-5.9549],[-37.1545,-5.9926],[-37.1623,-6.0212],[-37.1739,-6.048],[-37.1751,-6.1422],[-37.1569,-6.1525],[-37.1407,-6.181],[-37.0971,-6.2312],[-37.0701,-6.2375],[-37.0457,-6.2239],[-37.0031,-6.2217],[-36.9573,-6.1908],[-36.8922,-6.1766],[-36.8942,-6.1453],[-36.9245,-6.132],[-36.934,-6.089],[-36.8993,-6.0859],[-36.8554,-6.0443],[-36.849,-6.0103],[-36.8587,-5.9846],[-36.8937,-5.975]]]},"properties":{"cd_geocmu":"2406106","nome":"Jucurutu","uf":"RN","hc-key":"br-rn-2406106"}},{"type":"Feature","geometry":{"type":"Polygon","coordinates":[[[-37.5786,-5.5716],[-37.5624,-5.4923],[-37.6431,-5.4164],[-37.7614,-5.5777],[-37.6762,-5.6348],[-37.5786,-5.5716]]]},"properties":{"cd_geocmu":"2403707","nome":"Felipe Guerra","uf":"RN","hc-key":"br-rn-2403707"}},{"type":"Feature","geometry":{"type":"Polygon","coordinates":[[[-36.2735,-5.7093],[-36.3257,-5.7215],[-36.3619,-5.7079],[-36.4442,-5.6986],[-36.5238,-5.6996],[-36.5679,-5.7576],[-36.5504,-5.7694],[-36.5092,-5.7559],[-36.3892,-5.7954],[-36.3564,-5.849],[-36.2848,-5.8593],[-36.2735,-5.7093]]]},"properties":{"cd_geocmu":"2403756","nome":"Fernando Pedroza","uf":"RN","hc-key":"br-rn-2403756"}},{"type":"Feature","geometry":{"type":"Polygon","coordinates":[[[-35.3499,-6.2249],[-35.3607,-6.3079],[-35.3422,-6.3153],[-35.3232,-6.2711],[-35.319,-6.191],[-35.3394,-6.1854],[-35.3499,-6.2249]]]},"properties":{"cd_geocmu":"2406155","nome":"Jundiá","uf":"RN","hc-key":"br-rn-2406155"}},{"type":"Feature","geometry":{"type":"Polygon","coordinates":[[[-35.3581,-6.2498],[-35.4014,-6.2454],[-35.4209,-6.2732],[-35.4254,-6.3194],[-35.3885,-6.3228],[-35.3581,-6.2498]]]},"properties":{"cd_geocmu":"2409209","nome":"Passagem","uf":"RN","hc-key":"br-rn-2409209"}},{"type":"Feature","geometry":{"type":"Polygon","coordinates":[[[-35.8434,-6.3778],[-35.8546,-6.4345],[-35.8387,-6.4526],[-35.7799,-6.4833],[-35.7733,-6.4828],[-35.7647,-6.4186],[-35.7734,-6.4076],[-35.8434,-6.3778]]]},"properties":{"cd_geocmu":"2407906","nome":"Monte das Gameleiras","uf":"RN","hc-key":"br-rn-2407906"}},{"type":"Feature","geometry":{"type":"Polygon","coordinates":[[[-37.9131,-5.9035],[-37.9169,-5.8527],[-37.951,-5.8635],[-37.9873,-5.8855],[-38.0093,-5.9156],[-38.0449,-5.9357],[-38.0263,-5.991],[-37.9828,-5.9685],[-37.9705,-5.9566],[-37.9212,-5.9598],[-37.8968,-5.9398],[-37.9131,-5.9035]]]},"properties":{"cd_geocmu":"2410702","nome":"Riacho da Cruz","uf":"RN","hc-key":"br-rn-2410702"}},{"type":"Feature","geometry":{"type":"Polygon","coordinates":[[[-36.6797,-6.5793],[-36.6364,-6.5924],[-36.5875,-6.5848],[-36.55,-6.608],[-36.5207,-6.6106],[-36.5138,-6.5944],[-36.4382,-6.6293],[-36.4422,-6.5647],[-36.4793,-6.5399],[-36.4815,-6.5206],[-36.5258,-6.5012],[-36.5282,-6.4793],[-36.5813,-6.4743],[-36.6117,-6.4986],[-36.6797,-6.5793]]]},"properties":{"cd_geocmu":"2402402","nome":"Carnaúba dos Dantas","uf":"RN","hc-key":"br-rn-2402402"}},{"type":"Feature","geometry":{"type":"Polygon","coordinates":[[[-37.1366,-5.0051],[-37.1318,-5.0305],[-37.1529,-5.0539],[-37.1374,-5.1054],[-37.1114,-5.1247],[-37.1117,-5.0968],[-37.0508,-5.0966],[-37.0509,-5.0598],[-37.0284,-5.0597],[-37.0114,-5.0219],[-36.9658,-5.0219],[-36.966,-4.9859],[-36.9083,-4.9898],[-36.8557,-4.9723],[-36.8785,-4.9506],[-36.9188,-4.9465],[-36.96,-4.9186],[-37.0033,-4.9294],[-37.0373,-4.9499],[-37.1039,-4.9224],[-37.1386,-4.9479],[-37.1473,-4.9752],[-37.1366,-5.0051]]]},"properties":{"cd_geocmu":"2401107","nome":"Areia Branca","uf":"RN","hc-key":"br-rn-2401107"}},{"type":"Feature","geometry":{"type":"Polygon","coordinates":[[[-35.2857,-6.2053],[-35.2667,-6.3243],[-35.2722,-6.3702],[-35.2361,-6.3493],[-35.1987,-6.3593],[-35.1674,-6.354],[-35.1674,-6.322],[-35.1453,-6.299],[-35.1554,-6.2677],[-35.1499,-6.2181],[-35.2024,-6.2227],[-35.2311,-6.2423],[-35.2857,-6.2053]]]},"properties":{"cd_geocmu":"2404200","nome":"Goianinha","uf":"RN","hc-key":"br-rn-2404200"}},{"type":"Feature","geometry":{"type":"Polygon","coordinates":[[[-38.4814,-6.3044],[-38.4815,-6.252],[-38.4485,-6.2219],[-38.418,-6.2188],[-38.365,-6.1729],[-38.3491,-6.1235],[-38.374,-6.1672],[-38.4088,-6.1779],[-38.466,-6.1214],[-38.4755,-6.157],[-38.5272,-6.1934],[-38.5197,-6.223],[-38.5704,-6.293],[-38.5425,-6.2862],[-38.4814,-6.3044]]]},"properties":{"cd_geocmu":"2412500","nome":"São Miguel","uf":"RN","hc-key":"br-rn-2412500"}},{"type":"Feature","geometry":{"type":"Polygon","coordinates":[[[-38.0263,-5.991],[-38.0449,-5.9357],[-38.0093,-5.9156],[-37.9873,-5.8855],[-37.951,-5.8635],[-38.0043,-5.8569],[-38.0604,-5.9038],[-38.1021,-5.9233],[-38.1215,-5.9458],[-38.1145,-5.9591],[-38.0867,-6.015],[-38.0435,-6.0082],[-38.0263,-5.991]]]},"properties":{"cd_geocmu":"2413805","nome":"Taboleiro Grande","uf":"RN","hc-key":"br-rn-2413805"}},{"type":"Feature","geometry":{"type":"Polygon","coordinates":[[[-35.6171,-5.114],[-35.639,-5.1195],[-35.7096,-5.1033],[-35.7909,-5.0774],[-35.8319,-5.21],[-35.8402,-5.2346],[-35.8319,-5.3061],[-35.7619,-5.2936],[-35.7054,-5.2941],[-35.6829,-5.2774],[-35.6296,-5.1991],[-35.6171,-5.114]]]},"properties":{"cd_geocmu":"2412559","nome":"São Miguel do Gostoso","uf":"RN","hc-key":"br-rn-2412559"}},{"type":"Feature","geometry":{"type":"Polygon","coordinates":[[[-36.1394,-6.3298],[-36.0707,-6.3024],[-36.0338,-6.2993],[-35.9655,-6.471],[-35.965,-6.3878],[-35.9072,-6.3526],[-35.8705,-6.3628],[-35.9182,-6.1628],[-35.9669,-6.1718],[-35.987,-6.1429],[-35.9865,-6.0983],[-36.0318,-6.0694],[-36.0804,-6.102],[-36.0779,-6.1961],[-36.1338,-6.2106],[-36.1538,-6.2998],[-36.1394,-6.3298]]]},"properties":{"cd_geocmu":"2411205","nome":"Santa Cruz","uf":"RN","hc-key":"br-rn-2411205"}},{"type":"Feature","geometry":{"type":"Polygon","coordinates":[[[-35.4437,-6.1406],[-35.4656,-6.1216],[-35.5317,-6.0916],[-35.5354,-6.142],[-35.5504,-6.1999],[-35.527,-6.2013],[-35.4455,-6.1541],[-35.4437,-6.1406]]]},"properties":{"cd_geocmu":"2406601","nome":"Lagoa Salgada","uf":"RN","hc-key":"br-rn-2406601"}},{"type":"Feature","geometry":{"type":"Polygon","coordinates":[[[-35.5504,-6.1999],[-35.5354,-6.142],[-35.5317,-6.0916],[-35.5454,-6.0556],[-35.5467,-6.054],[-35.5577,-6.0468],[-35.5708,-6.0795],[-35.5889,-6.0968],[-35.6386,-6.1375],[-35.6538,-6.1772],[-35.6822,-6.1682],[-35.7214,-6.1731],[-35.7406,-6.1827],[-35.6633,-6.1979],[-35.66,-6.2222],[-35.6218,-6.2052],[-35.5677,-6.2057],[-35.5504,-6.1999]]]},"properties":{"cd_geocmu":"2405306","nome":"Januário Cicco","uf":"RN","hc-key":"br-rn-2405306"}},{"type":"Feature","geometry":{"type":"Polygon","coordinates":[[[-37.7722,-6.0018],[-37.7407,-6.0132],[-37.7217,-6.0411],[-37.6724,-6.0479],[-37.6745,-6.0174],[-37.657,-5.992],[-37.6486,-5.9413],[-37.713,-5.9191],[-37.7567,-5.9401],[-37.7736,-5.9617],[-37.7722,-6.0018]]]},"properties":{"cd_geocmu":"2408409","nome":"Olho d'Água do Borges","uf":"RN","hc-key":"br-rn-2408409"}},{"type":"Feature","geometry":{"type":"Polygon","coordinates":[[[-35.282,-5.8295],[-35.3086,-5.8363],[-35.432,-5.8452],[-35.4716,-5.8348],[-35.489,-5.8312],[-35.529,-5.8818],[-35.5722,-5.9323],[-35.5556,-5.9485],[-35.5374,-5.9957],[-35.5577,-6.0468],[-35.5467,-6.054],[-35.3734,-5.9874],[-35.2961,-5.9582],[-35.2824,-5.8498],[-35.282,-5.8295]]]},"properties":{"cd_geocmu":"2407104","nome":"Macaíba","uf":"RN","hc-key":"br-rn-2407104"}},{"type":"Feature","geometry":{"type":"Polygon","coordinates":[[[-36.838,-5.3922],[-36.5374,-5.4128],[-36.5554,-5.3949],[-36.6644,-5.3722],[-36.7546,-5.2727],[-36.8109,-5.3445],[-36.838,-5.3922]]]},"properties":{"cd_geocmu":"2400703","nome":"Alto do Rodrigues","uf":"RN","hc-key":"br-rn-2400703"}},{"type":"Feature","geometry":{"type":"Polygon","coordinates":[[[-37.2609,-6.4043],[-37.3185,-6.4547],[-37.2602,-6.5235],[-37.2308,-6.5695],[-37.2169,-6.5594],[-37.1953,-6.4468],[-37.1885,-6.439],[-37.2205,-6.4303],[-37.2609,-6.4043]]]},"properties":{"cd_geocmu":"2414308","nome":"Timbaúba dos Batistas","uf":"RN","hc-key":"br-rn-2414308"}},{"type":"Feature","geometry":{"type":"Polygon","coordinates":[[[-36.8953,-6.2394],[-36.8377,-6.2698],[-36.8144,-6.3037],[-36.7729,-6.2984],[-36.7542,-6.3205],[-36.7433,-6.3075],[-36.7037,-6.2208],[-36.7854,-6.1967],[-36.7297,-6.1498],[-36.732,-6.1065],[-36.7199,-6.0953],[-36.7309,-6.0566],[-36.7666,-6.0562],[-36.7934,-6.0401],[-36.8125,-6.0532],[-36.8554,-6.0443],[-36.8993,-6.0859],[-36.934,-6.089],[-36.9245,-6.132],[-36.8942,-6.1453],[-36.8922,-6.1766],[-36.9573,-6.1908],[-36.8953,-6.2394]]]},"properties":{"cd_geocmu":"2403806","nome":"Florânia","uf":"RN","hc-key":"br-rn-2403806"}},{"type":"Feature","geometry":{"type":"Polygon","coordinates":[[[-36.6046,-6.2904],[-36.5916,-6.2477],[-36.6189,-6.1924],[-36.6223,-6.1318],[-36.6387,-6.089],[-36.6533,-6.1118],[-36.7006,-6.1453],[-36.7135,-6.2052],[-36.7037,-6.2208],[-36.7433,-6.3075],[-36.71,-6.2781],[-36.6625,-6.2785],[-36.632,-6.2686],[-36.6046,-6.2904]]]},"properties":{"cd_geocmu":"2413003","nome":"São Vicente","uf":"RN","hc-key":"br-rn-2413003"}},{"type":"Feature","geometry":{"type":"Polygon","coordinates":[[[-36.2232,-5.4339],[-36.2758,-5.2895],[-36.3682,-5.2508],[-36.3803,-5.2713],[-36.3813,-5.3149],[-36.4103,-5.3342],[-36.4399,-5.3699],[-36.4699,-5.5984],[-36.307,-5.6503],[-36.2622,-5.6799],[-36.1797,-5.4775],[-36.2232,-5.4339]]]},"properties":{"cd_geocmu":"2409704","nome":"Pedro Avelino","uf":"RN","hc-key":"br-rn-2409704"}},{"type":"Feature","geometry":{"type":"Polygon","coordinates":[[[-38.272,-6.2226],[-38.3016,-6.2413],[-38.3579,-6.2176],[-38.3793,-6.2627],[-38.4087,-6.2935],[-38.3946,-6.3451],[-38.3313,-6.3287],[-38.3334,-6.3116],[-38.2976,-6.2781],[-38.2476,-6.2897],[-38.2491,-6.2493],[-38.272,-6.2226]]]},"properties":{"cd_geocmu":"2410801","nome":"Riacho de Santana","uf":"RN","hc-key":"br-rn-2410801"}},{"type":"Feature","geometry":{"type":"Polygon","coordinates":[[[-37.0512,-5.2941],[-37.0294,-5.3257],[-36.9285,-5.3537],[-36.8564,-5.4009],[-36.8384,-5.4038],[-36.838,-5.3922],[-36.8109,-5.3445],[-36.7546,-5.2727],[-36.7257,-5.262],[-36.7153,-5.2145],[-36.7291,-5.175],[-36.7486,-5.152],[-36.797,-5.1746],[-36.9027,-5.1497],[-36.9301,-5.131],[-36.9281,-5.2938],[-37.0512,-5.2941]]]},"properties":{"cd_geocmu":"2402501","nome":"Carnaubais","uf":"RN","hc-key":"br-rn-2402501"}},{"type":"Feature","geometry":{"type":"Polygon","coordinates":[[[-35.1108,-6.1869],[-35.157,-6.1482],[-35.1755,-6.1649],[-35.2203,-6.1708],[-35.2981,-6.1613],[-35.2857,-6.2053],[-35.2311,-6.2423],[-35.2024,-6.2227],[-35.1499,-6.2181],[-35.1108,-6.1869]]]},"properties":{"cd_geocmu":"2401206","nome":"Arês","uf":"RN","hc-key":"br-rn-2401206"}},{"type":"Feature","geometry":{"type":"Polygon","coordinates":[[[-35.6318,-5.7144],[-35.5577,-5.7211],[-35.5519,-5.7033],[-35.5482,-5.6881],[-35.4944,-5.666],[-35.5121,-5.6501],[-35.5214,-5.5777],[-35.5018,-5.4923],[-35.5376,-5.5125],[-35.5652,-5.4937],[-35.6256,-5.4923],[-35.6682,-5.4963],[-35.6585,-5.5865],[-35.6415,-5.6294],[-35.6318,-5.7144]]]},"properties":{"cd_geocmu":"2413904","nome":"Taipu","uf":"RN","hc-key":"br-rn-2413904"}}]}